ID_EMERGENCIA,FENOMENO,TAXONOMIA,RPVE,INTENSIDAD,DESCRIPCION,DETALLES,NOMBRE,FUENTE,MAGNI_UNI,MAGNI_NUM,CALLE,NUMERO,COLONIA,CVE_MUN,ALCALDIA,ENTIDAD,LATITUD,LONGITUD
9374,EMERGENCIA,,ESCENARIO,,ENFERMO,,,SUBDIRECCION DE ATENCION A EMERGENCIAS Y RIESGOS,,,AVENIDA INGENIEROS MILITARES & PEPE ORTIZ,SIN NUMERO,SAN LORENZO TLALTENANGO,16,MIGUEL HIDALGO,CIUDAD DE MEXICO,19.46774979,-99.20788549
9375,EMERGENCIA,,ESCENARIO,,ACCIDENTE DE VEHICULO,,,SUBDIRECCION DE ATENCION A EMERGENCIAS Y RIESGOS,,,CONSTITUYENTES Y PARQUE LIRA,SIN NUMERO,BOSQUE DE CHAPULTEPEC I SECCION,16,MIGUEL HIDALGO,CIUDAD DE MEXICO,19.41223544,-99.19148069
9376,EMERGENCIA,,ESCENARIO,,INCONSCIENTE,,,SUBDIRECCION DE ATENCION A EMERGENCIAS Y RIESGOS,,,CALLE GENERAL JESUS ALONSO FLORES CALLE GENERAL MANUEL M PLATA ,SIN NUMERO,OBSERVATORIO,16,MIGUEL HIDALGO,CIUDAD DE MEXICO,19.40578839,-99.19497207
9377,EMERGENCIA,,ESCENARIO,,LESIONADO POR CAIDA,,,SUBDIRECCION DE ATENCION A EMERGENCIAS Y RIESGOS,,,AV MARIANO ESCOBEDO FELIPE CARRILLO PUERTO,SIN NUMERO,POPOTLA,16,MIGUEL HIDALGO,CIUDAD DE MEXICO,19.45143905,-99.18190162
9378,EMERGENCIA,,ESCENARIO,,ACCIDENTE DE VEHICULO,,,SUBDIRECCION DE ATENCION A EMERGENCIAS Y RIESGOS,,,SOSTENES ROCHA AV OBSERVATORIO,SIN NUMERO,DANIEL GARZA,16,MIGUEL HIDALGO,CIUDAD DE MEXICO,19.40283003,-99.19910406
9379,EMERGENCIA,,ESCENARIO,,ACCIDENTE DE VEHICULO,,,SUBDIRECCION DE ATENCION A EMERGENCIAS Y RIESGOS,,,SOSTENES ROCHA AV OBSERVATORIO,SIN NUMERO,DANIEL GARZA,16,MIGUEL HIDALGO,CIUDAD DE MEXICO,19.40283003,-99.19910406
9380,EMERGENCIA,,ESCENARIO,,ACCIDENTE DE MOTOCICLETA,,,SUBDIRECCION DE ATENCION A EMERGENCIAS Y RIESGOS,,,INGENIERO MILITARES,SIN NUMERO,LOMAS DE SOTELO,16,MIGUEL HIDALGO,CIUDAD DE MEXICO,19.45147646,-99.21633916
9381,EMERGENCIA,,ESCENARIO,,ENFERMO,,,SUBDIRECCION DE ATENCION A EMERGENCIAS Y RIESGOS,,,CALZ MEXICOTACUBA GOLFO DE CAMPECHE,SIN NUMERO,TACUBA,16,MIGUEL HIDALGO,CIUDAD DE MEXICO,19.45858665,-99.18610261
9382,EMERGENCIA,,ESCENARIO,,ENFERMO,,,SUBDIRECCION DE ATENCION A EMERGENCIAS Y RIESGOS,,,CALZ MEXICOTACUBA GOLFO DE CAMPECHE,SIN NUMERO,TACUBA,16,MIGUEL HIDALGO,CIUDAD DE MEXICO,19.45858665,-99.18610261
9383,EMERGENCIA,,ESCENARIO,,INCONSCIENTE,,,SUBDIRECCION DE ATENCION A EMERGENCIAS Y RIESGOS,,,LAGO ALBERTO Y LAGO ISRAE,300,ANAHUAC I SECCION,16,MIGUEL HIDALGO,CIUDAD DE MEXICO,19.4399124,-99.18229042
9384,EMERGENCIA,,ESCENARIO,,ENFERMO,,,SUBDIRECCION DE ATENCION A EMERGENCIAS Y RIESGOS,,,FAUSTO NIETO Y CALZADA DE LOS GALLOS,SIN NUMERO,PLUTARCO ELIAS CALLES,16,MIGUEL HIDALGO,CIUDAD DE MEXICO,19.45730827,-99.1709039
9385,EMERGENCIA,,ESCENARIO,,MORDEDURA DE ANIMAL,,,SUBDIRECCION DE ATENCION A EMERGENCIAS Y RIESGOS,,,TEMISTOCLES Y HORACIO,SIN NUMERO,POLANCO IV SECCION,16,MIGUEL HIDALGO,CIUDAD DE MEXICO,19.43371666,-99.19247908
9386,EMERGENCIA,,ESCENARIO,,ACCIDENTE DE MOTOCICLETA,,,SUBDIRECCION DE ATENCION A EMERGENCIAS Y RIESGOS,,,ATITLAN Y SANTA CRUZ CACALCO,SIN NUMERO,MEXICO NUEVO,16,MIGUEL HIDALGO,CIUDAD DE MEXICO,19.45339319,-99.20611398
9387,EMERGENCIA,,ESCENARIO,,LESIONADO POR CAIDA,,,SUBDIRECCION DE ATENCION A EMERGENCIAS Y RIESGOS,,,CARLOS B SETINA Y ANTONIO MACEO,74,ESCANDON I SECCION,16,MIGUEL HIDALGO,CIUDAD DE MEXICO,19.40528453,-99.18314071
9388,EMERGENCIA,,ESCENARIO,,MORDEDURA DE ANIMAL,,,SUBDIRECCION DE ATENCION A EMERGENCIAS Y RIESGOS,,,CALZ MEXICO TACUBA FC DE CUERNAVACA,SIN NUMERO,POPOTLA,16,MIGUEL HIDALGO,CIUDAD DE MEXICO,19.45265171,-99.17726171
9389,EMERGENCIA,,ESCENARIO,,ACCIDENTE DE MOTOCICLETA,,,SUBDIRECCION DE ATENCION A EMERGENCIAS Y RIESGOS,,,PERIFERICO Y SOSTENES ROCHA ,SIN NUMERO,ESCANDON I SECCION,16,MIGUEL HIDALGO,CIUDAD DE MEXICO,19.40530477,-99.18309779
9390,EMERGENCIA,,ESCENARIO,,ENFERMO,,,SUBDIRECCION DE ATENCION A EMERGENCIAS Y RIESGOS,,,CALZ LEGARIA Y LAGO ATITLAN ,SIN NUMERO,MEXICO NUEVO,16,MIGUEL HIDALGO,CIUDAD DE MEXICO,19.45225452,-99.20085917
9391,EMERGENCIA,,ESCENARIO,,LESIONADO POR PROYECTIL DE ARMA DE FUEGO,,,SUBDIRECCION DE ATENCION A EMERGENCIAS Y RIESGOS,,,TONATZIN Y ATZAYACATL ,SIN NUMERO,TLAXPANA,16,MIGUEL HIDALGO,CIUDAD DE MEXICO,19.44072851,-99.17041956
9392,EMERGENCIA,,ESCENARIO,,LESIONADO POR CAIDA,,,SUBDIRECCION DE ATENCION A EMERGENCIAS Y RIESGOS,,,LAGO GRAN OSO CALZADA LEGARIA,SIN NUMERO,VENTURA PEREZ DE ALBA,16,MIGUEL HIDALGO,CIUDAD DE MEXICO,19.45324885,-99.1986429
9393,EMERGENCIA,,ESCENARIO,,LESIONADO POR GOLPES,,,SUBDIRECCION DE ATENCION A EMERGENCIAS Y RIESGOS,,,MEXICO TACUBA Y MAR ARABIGO,SIN NUMERO,TACUBA,16,MIGUEL HIDALGO,CIUDAD DE MEXICO,19.45890943,-99.18563923
9394,EMERGENCIA,,ESCENARIO,,LESIONADO POR GOLPES,,,SUBDIRECCION DE ATENCION A EMERGENCIAS Y RIESGOS,,,MEXICO TACUBA Y MAR ARABIGO,SIN NUMERO,TACUBA,16,MIGUEL HIDALGO,CIUDAD DE MEXICO,19.45890943,-99.18563923
9395,EMERGENCIA,,ESCENARIO,,ENFERMO,,,SUBDIRECCION DE ATENCION A EMERGENCIAS Y RIESGOS,,,NEXTITLA Y MAR MARMARA ,SIN NUMERO,NEXTITLA,16,MIGUEL HIDALGO,CIUDAD DE MEXICO,19.45622972,-99.17396456
9396,EMERGENCIA,,ESCENARIO,,INCENDIO,,,SUBDIRECCION DE ATENCION A EMERGENCIAS Y RIESGOS,,,MANUEL DUBLAN Y JALISCO,15,TACUBAYA,16,MIGUEL HIDALGO,CIUDAD DE MEXICO,19.4015752,-99.18876599
9397,EMERGENCIA,,ESCENARIO,,INCENDIO,,,SUBDIRECCION DE ATENCION A EMERGENCIAS Y RIESGOS,,,MANUEL DUBLAN  Y JALISCO,15,TACUBAYA,16,MIGUEL HIDALGO,CIUDAD DE MEXICO,19.4015752,-99.18876599
9398,EMERGENCIA,,ESCENARIO,,INCENDIO,,,SUBDIRECCION DE ATENCION A EMERGENCIAS Y RIESGOS,,,MANUEL DUBLAN Y JALISCO,15,TACUBAYA,16,MIGUEL HIDALGO,CIUDAD DE MEXICO,19.4015752,-99.18876599
9399,EMERGENCIA,,ESCENARIO,,INCENDIO,,,SUBDIRECCION DE ATENCION A EMERGENCIAS Y RIESGOS,,,MANUEL DUBLAN Y JALISCO,15,TACUBAYA,16,MIGUEL HIDALGO,CIUDAD DE MEXICO,19.4015752,-99.18876599
9400,EMERGENCIA,,ESCENARIO,,ATROPELLADO,,,SUBDIRECCION DE ATENCION A EMERGENCIAS Y RIESGOS,,,CARLOS LAZO Y CDA RUFINA,SIN NUMERO,TACUBAYA,16,MIGUEL HIDALGO,CIUDAD DE MEXICO,19.40245183,-99.1880521
9401,EMERGENCIA,,ESCENARIO,,ACCIDENTE MULTIPLE CON LESIONADOS,,,SUBDIRECCION DE ATENCION A EMERGENCIAS Y RIESGOS,,,FLORENCIO MIRANDA Y AVENIDA OBSERVATORIO,SIN NUMERO,16 DE SEPTIEMBRE ,16,MIGUEL HIDALGO,CIUDAD DE MEXICO,19.40086557,-99.207899
9402,EMERGENCIA,,ESCENARIO,,ENFERMO,,,SUBDIRECCION DE ATENCION A EMERGENCIAS Y RIESGOS,,,PARQUE LIRA TESORERIA,94,OBSERVATORIO,16,MIGUEL HIDALGO,CIUDAD DE MEXICO,19.40513799,-99.19076877
9403,EMERGENCIA,,ESCENARIO,,ACCIDENTE DE MOTOCICLETA,,,SUBDIRECCION DE ATENCION A EMERGENCIAS Y RIESGOS,,,BOULEVARD DE LOS VIRREYES ESQ ANTONIO DE MENDOZA,SIN NUMERO,LOMAS DE CHAPULTEPEC IV SECCION,16,MIGUEL HIDALGO,CIUDAD DE MEXICO,19.42036962,-99.20851125
9404,EMERGENCIA,,ESCENARIO,,LESIONADO POR GOLPES,,,SUBDIRECCION DE ATENCION A EMERGENCIAS Y RIESGOS,,,PARQUE LIRA EDIFICIO AMARILLO,94,OBSERVATORIO,16,MIGUEL HIDALGO,CIUDAD DE MEXICO,19.40513799,-99.19076877
9405,EMERGENCIA,,ESCENARIO,,LESIONADO POR CAIDA,,,SUBDIRECCION DE ATENCION A EMERGENCIAS Y RIESGOS,,,MAR ADRIATICO ,7,POPOTLA,16,MIGUEL HIDALGO,CIUDAD DE MEXICO,19.45269533,-99.18432342
9406,EMERGENCIA,,ESCENARIO,,LESIONADO POR CAIDA,,,SUBDIRECCION DE ATENCION A EMERGENCIAS Y RIESGOS,,,GOB JOSE MORAN Y PARQUE LIRA,SIN NUMERO,AMPLIACION DANIEL GARZA,16,MIGUEL HIDALGO,CIUDAD DE MEXICO,19.40922815,-99.19043151
9407,EMERGENCIA,,ESCENARIO,,ACCIDENTE MULTIPLE CON LESIONADOS,,,SUBDIRECCION DE ATENCION A EMERGENCIAS Y RIESGOS,,,LOMAS DE SOTELO E ING MILITARES,SIN NUMERO,LOMAS HERMOSA,16,MIGUEL HIDALGO,CIUDAD DE MEXICO,19.44572401,-99.21736435
9408,EMERGENCIA,,ESCENARIO,,ENFERMO,,,SUBDIRECCION DE ATENCION A EMERGENCIAS Y RIESGOS,,,TIBURCIO MONTIEL Y CALLE GOBERNADOR IGNACIO ESTEVA ,78,SAN MIGUEL CHAPULTEPEC I SECCION,16,MIGUEL HIDALGO,CIUDAD DE MEXICO,19.41130411,-99.18669887
9409,EMERGENCIA,,ESCENARIO,,OTRAS LESIONES,,,SUBDIRECCION DE ATENCION A EMERGENCIAS Y RIESGOS,,,GOB AGUSTIN VICENTE EGUIA  GRAL SOSTENES ROCHA,SIN NUMERO,AMPLIACION DANIEL GARZA,16,MIGUEL HIDALGO,CIUDAD DE MEXICO,19.40894025,-99.1911858
9410,EMERGENCIA,,ESCENARIO,,ATROPELLADO,,,SUBDIRECCION DE ATENCION A EMERGENCIAS Y RIESGOS,,,CDA GOBERNADOR MANUEL REYES VERAMENDI,SIN NUMERO,SAN MIGUEL CHAPULTEPEC I SECCION,16,MIGUEL HIDALGO,CIUDAD DE MEXICO,19.40647714,-99.18818471
9411,EMERGENCIA,,ESCENARIO,,ENFERMO,,,SUBDIRECCION DE ATENCION A EMERGENCIAS Y RIESGOS,,,LAGO NARGIS Y EJERCITO NACIONAL,SIN NUMERO,GRANADA,16,MIGUEL HIDALGO,CIUDAD DE MEXICO,19.43821397,-99.18628782
9412,EMERGENCIA,,ESCENARIO,,INTENTO DE SUICIDIO,,,SUBDIRECCION DE ATENCION A EMERGENCIAS Y RIESGOS,,,LAGO MUSTERS ESQUINA CALZADA MEXICO TACUBA,31,ARGENTINA PONIENTE,16,MIGUEL HIDALGO,CIUDAD DE MEXICO,19.45811888,-99.20430648
9413,EMERGENCIA,,ESCENARIO,,ACCIDENTE DE MOTOCICLETA,,,SUBDIRECCION DE ATENCION A EMERGENCIAS Y RIESGOS,,,CONTITUYENTES Y GENERAL MANUEL LOERA,SIN NUMERO,BOSQUE DE CHAPULTEPEC II SECCION,16,MIGUEL HIDALGO,CIUDAD DE MEXICO,19.40730818,-99.20043102
9414,EMERGENCIA,,ESCENARIO,,ENFERMO,,,SUBDIRECCION DE ATENCION A EMERGENCIAS Y RIESGOS,,,PARQUE LIRA EDIFICIO AMARILLO,94,OBSERVATORIO,16,MIGUEL HIDALGO,CIUDAD DE MEXICO,19.4080061,-99.19082877
9415,EMERGENCIA,,ESCENARIO,,LESIONADO POR CAIDA,,,SUBDIRECCION DE ATENCION A EMERGENCIAS Y RIESGOS,,,PARQUE LIRA EX CAPILLA,94,OBSERVATORIO,16,MIGUEL HIDALGO,CIUDAD DE MEXICO,19.4080061,-99.19082877
9416,EMERGENCIA,,ESCENARIO,,INCONSCIENTE,,,SUBDIRECCION DE ATENCION A EMERGENCIAS Y RIESGOS,,,GOBERNADOR JUSTINO FERNANDEZ  ,7,SAN MIGUEL CHAPULTEPEC I SECCION ,16,MIGUEL HIDALGO,CIUDAD DE MEXICO,19.40757773,-99.18890716
9417,EMERGENCIA,,ESCENARIO,,ACCIDENTE DE VEHICULO,,,SUBDIRECCION DE ATENCION A EMERGENCIAS Y RIESGOS,,,AV RIO SAN JOAQUIN Y LAGO HIELMAR,SIN NUMERO,CUAUHTEMOC PENSIL,16,MIGUEL HIDALGO,CIUDAD DE MEXICO,19.44315209,-99.19221782
9418,EMERGENCIA,,ESCENARIO,,ACCIDENTE DE VEHICULO,,,SUBDIRECCION DE ATENCION A EMERGENCIAS Y RIESGOS,,,GOB RAFAEL REBOLLAR Y GOBJOSE MARIA TOMEL,SIN NUMERO,SAN MIGUEL CHAPULTEPEC II SECCION ,16,MIGUEL HIDALGO,CIUDAD DE MEXICO,19.41302818,-99.18701122
9419,EMERGENCIA,,ESCENARIO,,ENFERMO,,,SUBDIRECCION DE ATENCION A EMERGENCIAS Y RIESGOS,,,BAHIA DE LA ASENCION Y MARINA NACIONAL,SIN NUMERO,VERONICA ANZURES,16,MIGUEL HIDALGO,CIUDAD DE MEXICO,19.43852548,-99.17333428
9420,EMERGENCIA,,ESCENARIO,,ACCIDENTE DE MOTOCICLETA,,,SUBDIRECCION DE ATENCION A EMERGENCIAS Y RIESGOS,,,PASEO DE LA REFORMA Y WINSOR,SIN NUMERO,LOMAS DE REFORMA,16,MIGUEL HIDALGO,CIUDAD DE MEXICO,19.40279285,-99.2316
9421,EMERGENCIA,,ESCENARIO,,ACCIDENTE MULTIPLE CON LESIONADOS,,,SUBDIRECCION DE ATENCION A EMERGENCIAS Y RIESGOS,,,CONSTITUYENTES,1154,LOMAS ALTAS,16,MIGUEL HIDALGO,CIUDAD DE MEXICO,19.39391553,-99.23823555
9422,EMERGENCIA,,ESCENARIO,,ENFERMO,,,SUBDIRECCION DE ATENCION A EMERGENCIAS Y RIESGOS,,,JOSE MARTI ,24,TACUBAYA,16,MIGUEL HIDALGO,CIUDAD DE MEXICO,19.40343221,-99.18474717
9423,EMERGENCIA,,ESCENARIO,,ENFERMO,,,SUBDIRECCION DE ATENCION A EMERGENCIAS Y RIESGOS,,,PRIVADA GOBERNADOR GREGORIO V GELATI,8,SAN MIGUEL CHAPULTEPEC II SECCION,16,MIGUEL HIDALGO,CIUDAD DE MEXICO,19.41275022,-99.18795111
9424,EMERGENCIA,,ESCENARIO,,ENFERMO,,,SUBDIRECCION DE ATENCION A EMERGENCIAS Y RIESGOS,,,CTO INTERIOR MELCHOR OCAMPO,SIN NUMERO,TLAXPANA,16,MIGUEL HIDALGO,CIUDAD DE MEXICO,19.43696139,-99.16953929
9425,EMERGENCIA,,ESCENARIO,,VALORACION,,,SUBDIRECCION DE ATENCION A EMERGENCIAS Y RIESGOS,,,PLAN DE AYALA Y PRIVADA DIAZ MIRON,SIN NUMERO,SANTO TOMAS,16,MIGUEL HIDALGO,CIUDAD DE MEXICO,19.45150231,-99.17264782
9426,EMERGENCIA,,ESCENARIO,,ACCIDENTE DE VEHICULO,,,SUBDIRECCION DE ATENCION A EMERGENCIAS Y RIESGOS,,,FRANCISOC MARTINEZ Y PERIFERCO ADOLFO LOPEZ MATEOS ,SIN NUMERO,TACUBAYA,16,MIGUEL HIDALGO,CIUDAD DE MEXICO,19.40308699,-99.19192114
9427,EMERGENCIA,,ESCENARIO,,INCONSCIENTE,,,SUBDIRECCION DE ATENCION A EMERGENCIAS Y RIESGOS,,,MAR NEGRO  ,97,TACUBA,16,MIGUEL HIDALGO,CIUDAD DE MEXICO,19.45602021,-99.18536951
9428,EMERGENCIA,,ESCENARIO,,ENFERMO,,,SUBDIRECCION DE ATENCION A EMERGENCIAS Y RIESGOS,,,PARQUE LIRA Y EGUIA EXPLANADA DE ALCALDIA,94,SAN MIGUEL CHAPULTEPEC I SECCION,16,MIGUEL HIDALGO,CIUDAD DE MEXICO,19.40765237,-99.18933782
9429,EMERGENCIA,,ESCENARIO,,ENFERMO,,,SUBDIRECCION DE ATENCION A EMERGENCIAS Y RIESGOS,,,PARQUE LIRA Y EGUIA EXPLANADA DE ALCALDIA,94,SAN MIGUEL CHAPULTEPEC I SECCION,16,MIGUEL HIDALGO,CIUDAD DE MEXICO,19.40765237,-99.18933782
9430,EMERGENCIA,,ESCENARIO,,ENFERMO,,,SUBDIRECCION DE ATENCION A EMERGENCIAS Y RIESGOS,,,PARQUE LIRA Y EGUIA EXPLANADA DE ALCALDIA,94,SAN MIGUEL CHAPULTEPEC I SECCION,16,MIGUEL HIDALGO,CIUDAD DE MEXICO,19.40765237,-99.18933782
9431,EMERGENCIA,,ESCENARIO,,ENFERMO,,,SUBDIRECCION DE ATENCION A EMERGENCIAS Y RIESGOS,,,LUIS RUIZ ENTRE TOSACNO  Y OBSERVATORIOI,SIN NUMERO,TACUBAYA,16,MIGUEL HIDALGO,CIUDAD DE MEXICO,19.40371363,-99.18915493
9432,EMERGENCIA,,ESCENARIO,,LESIONADO POR CAIDA,,,SUBDIRECCION DE ATENCION A EMERGENCIAS Y RIESGOS,,,PARQUE LIRA Y EGUIA EXPLANADA DE ALCALDIA,94,SAN MIGUEL CHAPULTEPEC I SECCION,16,MIGUEL HIDALGO,CIUDAD DE MEXICO,19.40765237,-99.18933782
9433,EMERGENCIA,,ESCENARIO,,LESIONADO POR CAIDA,,,SUBDIRECCION DE ATENCION A EMERGENCIAS Y RIESGOS,,,ERASMO CASTELLANO QUINTO Y CARLOS LAZO ,SIN NUMERO,TACUBAYA,16,MIGUEL HIDALGO,CIUDAD DE MEXICO,19.40352931,-99.18885255
9434,EMERGENCIA,,ESCENARIO,,CONVULSIONES,,,SUBDIRECCION DE ATENCION A EMERGENCIAS Y RIESGOS,,,AV OBSERVATORIO Y GRAL MANUEL M PLATA,SIN NUMERO,OBSERVATORIO,16,MIGUEL HIDALGO,CIUDAD DE MEXICO,19.40375633,-99.19461548
9435,EMERGENCIA,,ESCENARIO,,LESIONADO POR PRACTICAS DEPORTIVAS,,,SUBDIRECCION DE ATENCION A EMERGENCIAS Y RIESGOS,,,AV MAESTRO RURAL Y JOSE PARRES,SIN NUMERO,UN HOGAR PARA NOSOTROS ,16,MIGUEL HIDALGO,CIUDAD DE MEXICO,19.44909313,-99.17037112
9436,EMERGENCIA,,ESCENARIO,,LESIONADO POR CAIDA,,,SUBDIRECCION DE ATENCION A EMERGENCIAS Y RIESGOS,,,JOSE MARIA VIGIL Y REVOLUCION,SIN NUMERO,TACUBAYA,16,MIGUEL HIDALGO,CIUDAD DE MEXICO,19.40153391,-99.18484963
9437,EMERGENCIA,,ESCENARIO,,LESIONADO POR CAIDA,,,SUBDIRECCION DE ATENCION A EMERGENCIAS Y RIESGOS,,,GRAL MARIANO MONTERDE,15,AMPLIACION DANIEL GARZA,16,MIGUEL HIDALGO,CIUDAD DE MEXICO,19.40630691,-99.19767651
9438,EMERGENCIA,,ESCENARIO,,LESIONADO POR CAIDA,,,SUBDIRECCION DE ATENCION A EMERGENCIAS Y RIESGOS,,,BOSQUE DE CHAPULTEPEC II SECC,SIN NUMERO,BOSQUE DE CHAPULTEPEC II SECCION,16,MIGUEL HIDALGO,CIUDAD DE MEXICO,19.41667774,-99.20309853
9439,EMERGENCIA,,ESCENARIO,,ENFERMO,,,SUBDIRECCION DE ATENCION A EMERGENCIAS Y RIESGOS,,,SOSTENES ROCHA Y BARRANQUILLA,SIN NUMERO,AMPLIACION DANIEL GARZA,16,MIGUEL HIDALGO,CIUDAD DE MEXICO,19.40757587,-99.1949608
9440,EMERGENCIA,,ESCENARIO,,ENFERMO,,,SUBDIRECCION DE ATENCION A EMERGENCIAS Y RIESGOS,,,GRAL MANUEL ECHEGARAY  Y GRAL PEDRO RINCON GALLARDO,57,AMPLIACION DANIEL GARZA,16,MIGUEL HIDALGO,CIUDAD DE MEXICO,19.40815025,-99.19524332
9441,EMERGENCIA,,ESCENARIO,,LESIONADO POR CAIDA,,,SUBDIRECCION DE ATENCION A EMERGENCIAS Y RIESGOS,,,BOSQUE DE COLORINES Y AV BOSQUE DE LA REFORMA,SIN NUMERO,BOSQUES DE LAS LOMAS,16,MIGUEL HIDALGO,CIUDAD DE MEXICO,19.39671298,-99.25399219
9442,EMERGENCIA,,ESCENARIO,,ENFERMO,,,SUBDIRECCION DE ATENCION A EMERGENCIAS Y RIESGOS,,,FRANCISCO RAMIREZ Y GRAL SOSTENES ROCHA,80,OBSERVATORIO,16,MIGUEL HIDALGO,CIUDAD DE MEXICO,19.40762062,-99.19258768
9443,EMERGENCIA,,ESCENARIO,,ENFERMO,,,SUBDIRECCION DE ATENCION A EMERGENCIAS Y RIESGOS,,,CARLOS B ZETINA Y AV PROGRESO,68,ESCANDON I SECCION,16,MIGUEL HIDALGO,CIUDAD DE MEXICO,19.40570346,-99.18333495
9444,EMERGENCIA,,ESCENARIO,,ACCIDENTE DE MOTOCICLETA,,,SUBDIRECCION DE ATENCION A EMERGENCIAS Y RIESGOS,,,CIRCUITO INTERIOR Y AV DE LOS MAESTROS ,SIN NUMERO,AGRICULTURA,16,MIGUEL HIDALGO,CIUDAD DE MEXICO,19.45576835,-99.16395541
9445,EMERGENCIA,,ESCENARIO,,ENFERMO,,,SUBDIRECCION DE ATENCION A EMERGENCIAS Y RIESGOS,,,CAMPO MARTE A CONSTITUYENTES,SIN NUMERO,OBSERVATORIO,16,MIGUEL HIDALGO,CIUDAD DE MEXICO,19.40575858,-99.18873097
9446,EMERGENCIA,,ESCENARIO,,LESIONADO POR CAIDA,,,SUBDIRECCION DE ATENCION A EMERGENCIAS Y RIESGOS,,,CAMPO MARTE A CONSTITUYENTES,SIN NUMERO,OBSERVATORIO,16,MIGUEL HIDALGO,CIUDAD DE MEXICO,19.40575858,-99.18873097
9447,EMERGENCIA,,ESCENARIO,,OLOR FETIDO,,,SUBDIRECCION DE ATENCION A EMERGENCIAS Y RIESGOS,,,ELIGIO ANCONA Y PLAN DE AYALA,SIN NUMERO,PLUTARCO ELIAS CALLES,16,MIGUEL HIDALGO,CIUDAD DE MEXICO,19.45498465,-99.17006016
9448,EMERGENCIA,,ESCENARIO,,CICLISTA LESIONADO ,,,SUBDIRECCION DE ATENCION A EMERGENCIAS Y RIESGOS,,,IGNACIO ZARAGOZA Y CALLE 10,SIN NUMERO,BOSQUE DE CHAPULTEPEC III SECCION,16,MIGUEL HIDALGO,CIUDAD DE MEXICO,19.40877377,-99.21105086
9449,EMERGENCIA,,ESCENARIO,,CONVULSIONES,,,SUBDIRECCION DE ATENCION A EMERGENCIAS Y RIESGOS,,,PRIMER RETORNO CALLE 7 Y RETORNO SEGUNDO ING MILITARES,SIN NUMERO,LOMAS DE SOTELO,16,MIGUEL HIDALGO,CIUDAD DE MEXICO,19.45151693,-99.21630697
9450,EMERGENCIA,,ESCENARIO,,LESIONADO POR CAIDA,,,SUBDIRECCION DE ATENCION A EMERGENCIAS Y RIESGOS,,,PASEO DE LA REFORMA Y AVENIDA GRUTAS,SIN NUMERO,BOSQUE DE CHAPULTEPEC I SECCION,16,MIGUEL HIDALGO,CIUDAD DE MEXICO,19.42497246,-99.18432636
9451,EMERGENCIA,,ESCENARIO,,LESIONADO POR CAIDA,,,SUBDIRECCION DE ATENCION A EMERGENCIAS Y RIESGOS,,,LAGO SAN JOSE Y LAGO MANITOVA,SIN NUMERO,AMPLIACION GRANADA,16,MIGUEL HIDALGO,CIUDAD DE MEXICO,19.44285305,-99.19737052
9452,EMERGENCIA,,ESCENARIO,,LESIONADO POR CAIDA,,,SUBDIRECCION DE ATENCION A EMERGENCIAS Y RIESGOS,,, LAGO ONEGA ESQ LAGO BOLSENA ,181,MODELO PENSIL,16,MIGUEL HIDALGO,CIUDAD DE MEXICO,19.4469743,-99.18939306
9453,EMERGENCIA,,ESCENARIO,,ACCIDENTE DE MOTOCICLETA,,,SUBDIRECCION DE ATENCION A EMERGENCIAS Y RIESGOS,,,MARINA NACIONAL Y LAGO XOCHIMILCO,SIN NUMERO,ANAHUAC I SECCION,16,MIGUEL HIDALGO,CIUDAD DE MEXICO,19.44376665,-99.17836457
9454,EMERGENCIA,,ESCENARIO,,LESIONADO POR CAIDA,,,SUBDIRECCION DE ATENCION A EMERGENCIAS Y RIESGOS,,,CIRCUITO INTERIOR  MARINA NACIONAL ,SIN NUMERO,VERONICA ANZURES,16,MIGUEL HIDALGO,CIUDAD DE MEXICO,19.43581693,-99.17059967
9455,EMERGENCIA,,ESCENARIO,,LESIONADO POR CAIDA,,,SUBDIRECCION DE ATENCION A EMERGENCIAS Y RIESGOS,,,CALLE TERCER ANILLO DE CIRCUNVALACION EDIFICIO 5 ENTRADA A DEPTO 201 ,SIN NUMERO,LOMAS DE SOTELO,16,MIGUEL HIDALGO,CIUDAD DE MEXICO,19.44809911,-99.21423394
9456,EMERGENCIA,,ESCENARIO,,ACCIDENTE DE VEHICULO,,,SUBDIRECCION DE ATENCION A EMERGENCIAS Y RIESGOS,,,EJE 4 PONIENTE AVENIDA GRAL MARIANO ESCOBEDO ESQ COPERNICO ,SIN NUMERO,ANZURES,16,MIGUEL HIDALGO,CIUDAD DE MEXICO,19.43037807,-99.18048849
9457,EMERGENCIA,,ESCENARIO,,LESIONADO POR CAIDA,,,SUBDIRECCION DE ATENCION A EMERGENCIAS Y RIESGOS,,,VICENTE EGUIA Y SOSTENES ROCHA ,SIN NUMERO,OBSERVATORIO,16,MIGUEL HIDALGO,CIUDAD DE MEXICO,19.40756764,-99.19097946
9458,EMERGENCIA,,ESCENARIO,,INTOXICADO,,,SUBDIRECCION DE ATENCION A EMERGENCIAS Y RIESGOS,,,BOSQUE DE SAUCES Y BOSQUE DE LA REFORMA,SIN NUMERO,BOSQUES DE LAS LOMAS,16,MIGUEL HIDALGO,CIUDAD DE MEXICO,19.39788518,-99.25065076
9459,EMERGENCIA,,ESCENARIO,,INTOXICADO,,,SUBDIRECCION DE ATENCION A EMERGENCIAS Y RIESGOS,,,BOSQUE DE SAUCES Y BOSQUE DE LA REFORMA,SIN NUMERO,BOSQUES DE LAS LOMAS,16,MIGUEL HIDALGO,CIUDAD DE MEXICO,19.39788518,-99.25065076
9460,EMERGENCIA,,ESCENARIO,,INTOXICADO,,,SUBDIRECCION DE ATENCION A EMERGENCIAS Y RIESGOS,,,BOSQUE DE SAUCES Y BOSQUE DE LA REFORMA,SIN NUMERO,BOSQUES DE LAS LOMAS,16,MIGUEL HIDALGO,CIUDAD DE MEXICO,19.39788518,-99.25065076
9461,EMERGENCIA,,ESCENARIO,,ATROPELLADO,,,SUBDIRECCION DE ATENCION A EMERGENCIAS Y RIESGOS,,,CIRCUITO Y CALZ MEXICO TACUBA,SIN NUMERO,AGRICULTURA,16,MIGUEL HIDALGO,CIUDAD DE MEXICO,19.44389526,-99.16609258
9462,EMERGENCIA,,ESCENARIO,,ATROPELLADO,,,SUBDIRECCION DE ATENCION A EMERGENCIAS Y RIESGOS,,,CIRCUITO Y CALZ MEXICO TACUBA,SIN NUMERO,AGRICULTURA,16,MIGUEL HIDALGO,CIUDAD DE MEXICO,19.44389526,-99.16609258
9463,EMERGENCIA,,ESCENARIO,,ACCIDENTE DE VEHICULO,,,SUBDIRECCION DE ATENCION A EMERGENCIAS Y RIESGOS,,, CERVANTES SAAVEDRA Y LAGO VICTORIA,SIN NUMERO,GRANADA,16,MIGUEL HIDALGO,CIUDAD DE MEXICO,19.44091604,-99.19411051
9464,EMERGENCIA,,ESCENARIO,,ENFERMO,,,SUBDIRECCION DE ATENCION A EMERGENCIAS Y RIESGOS,,,BARRANQUILLA,99,AMPLIACION DANIEL GARZA,16,MIGUEL HIDALGO,CIUDAD DE MEXICO,19.40598525,-99.19705024
9465,EMERGENCIA,,ESCENARIO,,ATROPELLADO,,,SUBDIRECCION DE ATENCION A EMERGENCIAS Y RIESGOS,,,ARISTOTELES Y EMILIO CASTELAR,SIN NUMERO,POLANCO IV SECCION,16,MIGUEL HIDALGO,CIUDAD DE MEXICO,19.42962535,-99.19390498
9466,EMERGENCIA,,ESCENARIO,,ACCIDENTE MULTIPLE CON LESIONADOS,,,SUBDIRECCION DE ATENCION A EMERGENCIAS Y RIESGOS,,,AV OBSERVATORIO ESQ SUR 122,SIN NUMERO,16 DE SEPTIEMBRE ,16,MIGUEL HIDALGO,CIUDAD DE MEXICO,19.40120519,-99.20775365
9467,EMERGENCIA,,ESCENARIO,,ENFERMO,,,SUBDIRECCION DE ATENCION A EMERGENCIAS Y RIESGOS,,,PASEO DE LA REFORMA Y PERIFERICO,SIN NUMERO,BOSQUE DE CHAPULTEPEC II SECCION,16,MIGUEL HIDALGO,CIUDAD DE MEXICO,19.42702781,-99.20166553
9468,EMERGENCIA,,ESCENARIO,,CONVULSIONES,,,SUBDIRECCION DE ATENCION A EMERGENCIAS Y RIESGOS,,,SAN JOAQUIN ENTRE LAGO ATITLAN Y ALLENDE,247,SAN JOAQUIN,16,MIGUEL HIDALGO,CIUDAD DE MEXICO,19.45358618,-99.20576842
9469,EMERGENCIA,,ESCENARIO,,ACCIDENTE DE MOTOCICLETA,,,SUBDIRECCION DE ATENCION A EMERGENCIAS Y RIESGOS,,,PASEO DE LAS LILAS ,92,LOMAS DE BEZARES,16,MIGUEL HIDALGO,CIUDAD DE MEXICO,19.39120665,-99.24745468
9470,EMERGENCIA,,ESCENARIO,,LESIONADO POR CAIDA,,,SUBDIRECCION DE ATENCION A EMERGENCIAS Y RIESGOS,,,C MANUEL DUBLAN,29,TACUBAYA,16,MIGUEL HIDALGO,CIUDAD DE MEXICO,19.40150819,-99.18984451
9471,EMERGENCIA,,ESCENARIO,,LESIONADO POR CAIDA,,,SUBDIRECCION DE ATENCION A EMERGENCIAS Y RIESGOS,,,CALLE SUR 128 ESQ CONSTITUYENTES ,SIN NUMERO,AMERICA,16,MIGUEL HIDALGO,CIUDAD DE MEXICO,19.40610875,-99.2023696
9472,EMERGENCIA,,ESCENARIO,,ATROPELLADO,,,SUBDIRECCION DE ATENCION A EMERGENCIAS Y RIESGOS,,,ANTONIO VELAZQUEZ MARTINEZ Y RODOLFO GAONA,SIN NUMERO,PERIODISTA,16,MIGUEL HIDALGO,CIUDAD DE MEXICO,19.45207043,-99.21915833
9473,EMERGENCIA,,ESCENARIO,,LESIONADO POR CAIDA,,,SUBDIRECCION DE ATENCION A EMERGENCIAS Y RIESGOS,,,AVENIDA CANTIL Y CALLE 10,SIN NUMERO,MILITAR,16,MIGUEL HIDALGO,CIUDAD DE MEXICO,19.43137441,-99.22025753
9474,EMERGENCIA,,ESCENARIO,,LESIONADO POR CAIDA,,,SUBDIRECCION DE ATENCION A EMERGENCIAS Y RIESGOS,,,PDTE MASARYK Y PERIFERICO,SIN NUMERO,POLANCO II SECCION,16,MIGUEL HIDALGO,CIUDAD DE MEXICO,19.43250909,-99.20822579
9475,EMERGENCIA,,ESCENARIO,,ACCIDENTE DE VEHICULO,,,SUBDIRECCION DE ATENCION A EMERGENCIAS Y RIESGOS,,,FERNANDO ALENCASTRE Y PERIFERICO,SIN NUMERO,BOSQUE DE CHAPULTEPEC II SECCION,16,MIGUEL HIDALGO,CIUDAD DE MEXICO,19.42266839,-99.19904528
9476,EMERGENCIA,,ESCENARIO,,LESIONADO POR CAIDA,,,SUBDIRECCION DE ATENCION A EMERGENCIAS Y RIESGOS,,,GOBERNADOR MELCHOR MUZQUIZ SN SAN MIGUEL CHAPULTEPEC I SECC MIGUEL HIDALGO 11840 CIUDAD DE MEXICO CDMX,SIN NUMERO,SAN MIGUEL CHAPULTEPEC I SECCION,16,MIGUEL HIDALGO,CIUDAD DE MEXICO,19.41072214,-99.19048965
9477,EMERGENCIA,,ESCENARIO,,ACCIDENTE DE MOTOCICLETA,,,SUBDIRECCION DE ATENCION A EMERGENCIAS Y RIESGOS,,,AVENIDA NUEVO LEON Y BAJIO,254,HIPODROMO DE LAS AMERICAS ,16,MIGUEL HIDALGO,CIUDAD DE MEXICO,19.40269191,-99.17141345
9478,EMERGENCIA,,ESCENARIO,,ACCIDENTE DE MOTOCICLETA,,,SUBDIRECCION DE ATENCION A EMERGENCIAS Y RIESGOS,,,JOSE MARIA VIGIL Y AV TRANSITO,SIN NUMERO,TACUBAYA,16,MIGUEL HIDALGO,CIUDAD DE MEXICO,19.40174642,-99.18496653
9479,EMERGENCIA,,ESCENARIO,,ENFERMO,,,SUBDIRECCION DE ATENCION A EMERGENCIAS Y RIESGOS,,,LAGO ZURICH ,542,FRANCISCO I MADERO,16,MIGUEL HIDALGO,CIUDAD DE MEXICO,19.44662113,-99.20238632
9480,EMERGENCIA,,ESCENARIO,,LESIONADO POR GOLPES,,,SUBDIRECCION DE ATENCION A EMERGENCIAS Y RIESGOS,,,ARQ CARLOS LAZO Y AV JALISCO,SIN NUMERO,TACUBAYA,16,MIGUEL HIDALGO,CIUDAD DE MEXICO,19.40239056,-99.18769665
9481,EMERGENCIA,,ESCENARIO,,LESIONADO POR CAIDA,,,SUBDIRECCION DE ATENCION A EMERGENCIAS Y RIESGOS,,,SUR 128 Y PTE 73 A,SIN NUMERO,AMERICA,16,MIGUEL HIDALGO,CIUDAD DE MEXICO,19.40401199,-99.20232356
9482,EMERGENCIA,,ESCENARIO,,ENFERMO,,,SUBDIRECCION DE ATENCION A EMERGENCIAS Y RIESGOS,,,PARQUE IRA TESORERIA,94,OBSERVATORIO,16,MIGUEL HIDALGO,CIUDAD DE MEXICO,19.40735317,-99.1906499
9483,EMERGENCIA,,ESCENARIO,,ENFERMO,,,SUBDIRECCION DE ATENCION A EMERGENCIAS Y RIESGOS,,,PARQUE LINCOLN TORRE DEL RELOJ,SIN NUMERO,POLANCO III SECCION,16,MIGUEL HIDALGO,CIUDAD DE MEXICO,19.43022826,-99.1998102
9484,EMERGENCIA,,ESCENARIO,,INCONSCIENTE,,,SUBDIRECCION DE ATENCION A EMERGENCIAS Y RIESGOS,,,MUSEO DE ANTROPOLOGIA,SIN NUMERO,BOSQUE DE CHAPULTEPEC I SECCION,16,MIGUEL HIDALGO,CIUDAD DE MEXICO,19.42620647,-99.18584605
9485,EMERGENCIA,,ESCENARIO,,ACCIDENTE DE VEHICULO,,,SUBDIRECCION DE ATENCION A EMERGENCIAS Y RIESGOS,,,AV OBSERVATORIO Y SUR 126,SIN NUMERO,AMERICA,16,MIGUEL HIDALGO,CIUDAD DE MEXICO,19.40179676,-99.2013301
9486,EMERGENCIA,,ESCENARIO,,ACCIDENTE DE VEHICULO,,,SUBDIRECCION DE ATENCION A EMERGENCIAS Y RIESGOS,,,AV OBSERVATORIO Y SUR 126,SIN NUMERO,AMERICA,16,MIGUEL HIDALGO,CIUDAD DE MEXICO,19.40179676,-99.2013301
9487,EMERGENCIA,,ESCENARIO,,ENFERMO,,,SUBDIRECCION DE ATENCION A EMERGENCIAS Y RIESGOS,,,EXPLANADA MUSEO DE ANTROPOLOGIA,SIN NUMERO,BOSQUE DE CHAPULTEPEC I SECCION,16,MIGUEL HIDALGO,CIUDAD DE MEXICO,19.42620647,-99.18584605
9488,EMERGENCIA,,ESCENARIO,,ENFERMO,,,SUBDIRECCION DE ATENCION A EMERGENCIAS Y RIESGOS,,, FFCC DE CUERNAVACA Y MAXIMO ROJAS,SIN NUMERO,NEXTITLA,16,MIGUEL HIDALGO,CIUDAD DE MEXICO,19.45338141,-99.17521604
9489,EMERGENCIA,,ESCENARIO,,ACCIDENTE DE MOTOCICLETA,,,SUBDIRECCION DE ATENCION A EMERGENCIAS Y RIESGOS,,,LAGO CHAPALA Y FELIPE CARRILLO PUERTO,SIN NUMERO,POPOTLA,16,MIGUEL HIDALGO,CIUDAD DE MEXICO,19.44983805,-99.17444363
9490,EMERGENCIA,,ESCENARIO,,ACCIDENTE DE MOTOCICLETA,,,SUBDIRECCION DE ATENCION A EMERGENCIAS Y RIESGOS,,,LAGO CHAPALA Y FELIPE CARRILLO PUERTO,SIN NUMERO,POPOTLA,16,MIGUEL HIDALGO,CIUDAD DE MEXICO,19.44983805,-99.17444363
9491,EMERGENCIA,,ESCENARIO,,ENFERMO,,,SUBDIRECCION DE ATENCION A EMERGENCIAS Y RIESGOS,,,CALZADA MEXICO TACUBA Y LAGO MUSTERS,SIN NUMERO,ARGENTINA PONIENTE,16,MIGUEL HIDALGO,CIUDAD DE MEXICO,19.45747697,-99.204427
9492,EMERGENCIA,,ESCENARIO,,INCONSCIENTE,,,SUBDIRECCION DE ATENCION A EMERGENCIAS Y RIESGOS,,,CARLOS B ZETINA 152170 ESCANDON I SECC MIGUEL HIDALGO 11800 CIUDAD DE MEXICO CDMX,SIN NUMERO,ESCANDON I SECCION,16,MIGUEL HIDALGO,CIUDAD DE MEXICO,19.40143465,-99.18336208
9493,EMERGENCIA,,ESCENARIO,,ENFERMO,,,SUBDIRECCION DE ATENCION A EMERGENCIAS Y RIESGOS,,,QUETZALCOATL,57,TLAXPANA,16,MIGUEL HIDALGO,CIUDAD DE MEXICO,19.44119499,-99.16819766
9494,EMERGENCIA,,ESCENARIO,,ENFERMO,,,SUBDIRECCION DE ATENCION A EMERGENCIAS Y RIESGOS,,,ALEJANDRO DUMAS ,163,POLANCO IV SECCION,16,MIGUEL HIDALGO,CIUDAD DE MEXICO,19.43349175,-99.19568662
9495,EMERGENCIA,,ESCENARIO,,ENFERMO,,,SUBDIRECCION DE ATENCION A EMERGENCIAS Y RIESGOS,,,BAHIA DE BALLENAS Y BAHIA DE TODOS LOS SANTOS,SIN NUMERO,VERONICA ANZURES,16,MIGUEL HIDALGO,CIUDAD DE MEXICO,19.43678958,-99.17757265
9496,EMERGENCIA,,ESCENARIO,,ACCIDENTE DE MOTOCICLETA,,,SUBDIRECCION DE ATENCION A EMERGENCIAS Y RIESGOS,,,MEXICO TACUBA,SIN NUMERO,SAN DIEGO OCOYOACAC,16,MIGUEL HIDALGO,CIUDAD DE MEXICO,19.45967347,-99.19354279
9497,EMERGENCIA,,ESCENARIO,,ACCIDENTE DE MOTOCICLETA,,,SUBDIRECCION DE ATENCION A EMERGENCIAS Y RIESGOS,,,MEXICO TACUBA,SIN NUMERO,SAN DIEGO OCOYOACAC,16,MIGUEL HIDALGO,CIUDAD DE MEXICO,19.45967347,-99.19354279
9498,EMERGENCIA,,ESCENARIO,,INCONSCIENTE,,,SUBDIRECCION DE ATENCION A EMERGENCIAS Y RIESGOS,,,MEXICOTACUBA Y PRIV LAGO GUIJA,SIN NUMERO,SAN DIEGO OCOYOACAC,16,MIGUEL HIDALGO,CIUDAD DE MEXICO,19.45989166,-99.19048391
9499,EMERGENCIA,,ESCENARIO,,ENFERMO,,,SUBDIRECCION DE ATENCION A EMERGENCIAS Y RIESGOS,,,LANZ DURET Y PRIV LANZ DURET,SIN NUMERO,PERIODISTA,16,MIGUEL HIDALGO,CIUDAD DE MEXICO,19.44561226,-99.21805408
9500,EMERGENCIA,,ESCENARIO,,ENFERMO,,,SUBDIRECCION DE ATENCION A EMERGENCIAS Y RIESGOS,,,PONIENTE 119,308,POPO,16,MIGUEL HIDALGO,CIUDAD DE MEXICO,19.44575456,-99.19983621
9501,EMERGENCIA,,ESCENARIO,,ENFERMO,,,SUBDIRECCION DE ATENCION A EMERGENCIAS Y RIESGOS,,,LAGO MAYOR ENTRE LAGO BOLSENA Y LAGO MAYOR,176,LOS MANZANOS,16,MIGUEL HIDALGO,CIUDAD DE MEXICO,19.44607713,-99.18493485
9502,EMERGENCIA,,ESCENARIO,,ENFERMO,,,SUBDIRECCION DE ATENCION A EMERGENCIAS Y RIESGOS,,,AV REVOLUCION Y HEROES DE CHURUBUSCO ,SIN NUMERO,TACUBAYA,16,MIGUEL HIDALGO,CIUDAD DE MEXICO,19.39981181,-99.18530187
9503,EMERGENCIA,,ESCENARIO,,ENFERMO,,,SUBDIRECCION DE ATENCION A EMERGENCIAS Y RIESGOS,,,"AV JALISCO Y AV PARQUE LIRA COL TACUBAYA  
",SIN NUMERO,TACUBAYA,16,MIGUEL HIDALGO,CIUDAD DE MEXICO,19.40271189,-99.18591365
9504,EMERGENCIA,,ESCENARIO,,ACCIDENTE DE MOTOCICLETA,,,SUBDIRECCION DE ATENCION A EMERGENCIAS Y RIESGOS,,,"CORDILLERA DE LOS ANDES Y CIERRA MOJADA 
",SIN NUMERO,LOMAS DE CHAPULTEPEC III SECCION,16,MIGUEL HIDALGO,CIUDAD DE MEXICO,19.4288368,-99.21132657
9505,EMERGENCIA,,ESCENARIO,,ENFERMO,,,SUBDIRECCION DE ATENCION A EMERGENCIAS Y RIESGOS,,,CIRCUITO INTERIOR (AV REVOLUCION) Y EJE 4 SUR (BENJAMIN FRANKLIN),SIN NUMERO,SAN MIGUEL CHAPULTEPEC I SECCION,16,MIGUEL HIDALGO,CIUDAD DE MEXICO,19.4083932,-99.18422219
9506,EMERGENCIA,,ESCENARIO,,ENFERMO,,,SUBDIRECCION DE ATENCION A EMERGENCIAS Y RIESGOS,,,LAGO CHIEM Y LAGUNA DE TERMINOS,SIN NUMERO,CUAUHTEMOC PENSIL,16,MIGUEL HIDALGO,CIUDAD DE MEXICO,19.44481576,-99.19180086
9507,EMERGENCIA,,ESCENARIO,,ACCIDENTE DE MOTOCICLETA,,,SUBDIRECCION DE ATENCION A EMERGENCIAS Y RIESGOS,,,JOSE VASCONCELOS Y AV CHAPULTEPEC ,SIN NUMERO,BOSQUE DE CHAPULTEPEC I SECCION,16,MIGUEL HIDALGO,CIUDAD DE MEXICO,19.42020624,-99.17717425
9508,EMERGENCIA,,ESCENARIO,,LESIONADO POR CAIDA,,,SUBDIRECCION DE ATENCION A EMERGENCIAS Y RIESGOS,,,AV PUENTE DELA MORENA,57,ESCANDON I SECCION,16,MIGUEL HIDALGO,CIUDAD DE MEXICO,19.39811568,-99.18271249
9509,EMERGENCIA,,ESCENARIO,,ACCIDENTE DE MOTOCICLETA,,,SUBDIRECCION DE ATENCION A EMERGENCIAS Y RIESGOS,,,DANIEL CABRERA Y LAGO NAUR,SIN NUMERO,REFORMA PENSIL,16,MIGUEL HIDALGO,CIUDAD DE MEXICO,19.44720525,-99.1940108
9510,EMERGENCIA,,ESCENARIO,,VOLCADURA,,,SUBDIRECCION DE ATENCION A EMERGENCIAS Y RIESGOS,,,PASEO DELA REFORMA Y AV GRUTAS ,SIN NUMERO,BOSQUE DE CHAPULTEPEC I SECCION,16,MIGUEL HIDALGO,CIUDAD DE MEXICO,19.42420801,-99.18466768
9511,EMERGENCIA,,ESCENARIO,,ACCIDENTE DE MOTOCICLETA,,,SUBDIRECCION DE ATENCION A EMERGENCIAS Y RIESGOS,,,GOLFO DE MEXICO Y GOLFO RIGA ,SIN NUMERO,TACUBA,16,MIGUEL HIDALGO,CIUDAD DE MEXICO,19.4548713,-99.1860296
9512,EMERGENCIA,,ESCENARIO,,PERSONA EN SITUACION DE CALLE,,,SUBDIRECCION DE ATENCION A EMERGENCIAS Y RIESGOS,,,AV EJERCITO NACIONAL MEXICANO,1032,IRRIGACION,16,MIGUEL HIDALGO,CIUDAD DE MEXICO,19.43870199,-99.2088069
9513,EMERGENCIA,,ESCENARIO,,ENFERMO,,,SUBDIRECCION DE ATENCION A EMERGENCIAS Y RIESGOS,,,CERRADA LAGO PEYPUS  Y LAGO ONEGA,48,AHUHUETES ANAHUAC,16,MIGUEL HIDALGO,CIUDAD DE MEXICO,19.44909556,-99.18876786
9514,EMERGENCIA,,ESCENARIO,,LESIONADO POR GOLPES,,,SUBDIRECCION DE ATENCION A EMERGENCIAS Y RIESGOS,,,MEXICO TACUBA Y MAR JAVA,SIN NUMERO,NEXTITLA,16,MIGUEL HIDALGO,CIUDAD DE MEXICO,19.45354588,-99.17603673
9515,EMERGENCIA,,ESCENARIO,,LESIONADO POR CAIDA,,,SUBDIRECCION DE ATENCION A EMERGENCIAS Y RIESGOS,,,MASARYK Y SOCRATES,SIN NUMERO,POLANCO II SECCION,16,MIGUEL HIDALGO,CIUDAD DE MEXICO,19.43249322,-99.20422899
9516,EMERGENCIA,,ESCENARIO,,INTOXICADO,,,SUBDIRECCION DE ATENCION A EMERGENCIAS Y RIESGOS,,,LAGO BOLSENA,22,LAGO SUR,16,MIGUEL HIDALGO,CIUDAD DE MEXICO,19.44507728,-99.18801648
9517,EMERGENCIA,,ESCENARIO,,LESIONADO POR CAIDA,,,SUBDIRECCION DE ATENCION A EMERGENCIAS Y RIESGOS,,,AV PARQUE LIRA,53,SAN MIGUEL CHAPULTEPEC I SECCION,16,MIGUEL HIDALGO,CIUDAD DE MEXICO,19.4090825,-99.18975632
9518,EMERGENCIA,,ESCENARIO,,ACCIDENTE DE MOTOCICLETA,,,SUBDIRECCION DE ATENCION A EMERGENCIAS Y RIESGOS,,,MARIANO ESCOBEDO Y FERROCARRIL DE CUERNAVACA,SIN NUMERO,LOS MANZANOS,16,MIGUEL HIDALGO,CIUDAD DE MEXICO,19.44630214,-99.1828199
9519,EMERGENCIA,,ESCENARIO,,INTENTO DE SUICIDIO,,,SUBDIRECCION DE ATENCION A EMERGENCIAS Y RIESGOS,,,LAGO MASK Y LAGUNA DE MAYRAN,SIN NUMERO,GRANADA,16,MIGUEL HIDALGO,CIUDAD DE MEXICO,19.44224101,-99.18598552
9520,EMERGENCIA,,ESCENARIO,,ENFERMO,,,SUBDIRECCION DE ATENCION A EMERGENCIAS Y RIESGOS,,,PLAN DE GUADALUPE Y AV DE LOS MAESTROS,SIN NUMERO,PLUTARCO ELIAS CALLES,16,MIGUEL HIDALGO,CIUDAD DE MEXICO,19.45597777,-99.16603334
9521,EMERGENCIA,,ESCENARIO,,ENFERMO,,,SUBDIRECCION DE ATENCION A EMERGENCIAS Y RIESGOS,,, SUR 136 ,39,AMERICA,16,MIGUEL HIDALGO,CIUDAD DE MEXICO,19.40343822,-99.20444417
9522,EMERGENCIA,,ESCENARIO,,LESIONADO POR CAIDA,,,SUBDIRECCION DE ATENCION A EMERGENCIAS Y RIESGOS,,,AVENIDA JALISCO Y CALLEJON TORDO,SIN NUMERO,TACUBAYA,16,MIGUEL HIDALGO,CIUDAD DE MEXICO,19.40061014,-99.18840337
9523,EMERGENCIA,,ESCENARIO,,ATROPELLADO,,,SUBDIRECCION DE ATENCION A EMERGENCIAS Y RIESGOS,,,PROLONGACION MOLIERE Y AVENIDA HORACIO,222,GRANADA,16,MIGUEL HIDALGO,CIUDAD DE MEXICO,19.43941877,-99.20197808
9524,EMERGENCIA,,ESCENARIO,,ENFERMO,,,SUBDIRECCION DE ATENCION A EMERGENCIAS Y RIESGOS,,,INGENIEROS MILITARES Y RIO SAN JOAQUIN,21,LOMAS DE SOTELO,16,MIGUEL HIDALGO,CIUDAD DE MEXICO,19.45281649,-99.21604824
9525,EMERGENCIA,,ESCENARIO,,ACCIDENTE DE VEHICULO,,,SUBDIRECCION DE ATENCION A EMERGENCIAS Y RIESGOS,,,MIGUEL CERVANTES SAAVEDRA Y LAGO FILT,SIN NUMERO,GRANADA,16,MIGUEL HIDALGO,CIUDAD DE MEXICO,19.44123653,-99.19588443
9526,EMERGENCIA,,ESCENARIO,,ACCIDENTE DE VEHICULO,,,SUBDIRECCION DE ATENCION A EMERGENCIAS Y RIESGOS,,, COMPOSITORES Y KIOSKO,SIN NUMERO,BOSQUE DE CHAPULTEPEC I SECCION,16,MIGUEL HIDALGO,CIUDAD DE MEXICO,19.42578251,-99.19324543
9527,EMERGENCIA,,ESCENARIO,,ENFERMO,,,SUBDIRECCION DE ATENCION A EMERGENCIAS Y RIESGOS,,,AGRICULTURA Y AV JOSE MARTI ,82,ESCANDON II SECCION,16,MIGUEL HIDALGO,CIUDAD DE MEXICO,19.40161225,-99.17761503
9528,EMERGENCIA,,ESCENARIO,,ACCIDENTE DE VEHICULO DE PASAJEROS,,,SUBDIRECCION DE ATENCION A EMERGENCIAS Y RIESGOS,,,REVOLUCION Y JOSE MARIA VIGIL,SIN NUMERO,ESCANDON I SECCION,16,MIGUEL HIDALGO,CIUDAD DE MEXICO,19.40148517,-99.18477976
9529,EMERGENCIA,,ESCENARIO,,ENFERMO,,,SUBDIRECCION DE ATENCION A EMERGENCIAS Y RIESGOS,,,LAGO GASCASONICA  Y LAGO AMATITLAN ,SIN NUMERO,SAN DIEGO OCOYOACAC,16,MIGUEL HIDALGO,CIUDAD DE MEXICO,19.46117356,-99.1937752
9530,EMERGENCIA,,ESCENARIO,,LESIONADO POR CAIDA,,,SUBDIRECCION DE ATENCION A EMERGENCIAS Y RIESGOS,,,LAGO MAYOR Y LAGO BOLSENA ,176,SAN DIEGO OCOYOACAC,16,MIGUEL HIDALGO,CIUDAD DE MEXICO,19.46119012,-99.19370966
9531,EMERGENCIA,,ESCENARIO,,ENFERMO,,,SUBDIRECCION DE ATENCION A EMERGENCIAS Y RIESGOS,,,DAVID HERRERA ESQ 13 DE SEPTIEMBRE,22,ESCANDON II SECCION,16,MIGUEL HIDALGO,CIUDAD DE MEXICO,19.39857246,-99.17967793
9532,EMERGENCIA,,ESCENARIO,,ACCIDENTE DE VEHICULO,,,SUBDIRECCION DE ATENCION A EMERGENCIAS Y RIESGOS,,,CONSTITUYENTES Y PRIVADA CONSTITUYENTES,920,LOMAS ALTAS,16,MIGUEL HIDALGO,CIUDAD DE MEXICO,19.39600824,-99.22915563
9533,EMERGENCIA,,ESCENARIO,,ENFERMO,,,SUBDIRECCION DE ATENCION A EMERGENCIAS Y RIESGOS,,,VIRGILIO Y JULIO VERNE,SIN NUMERO,POLANCO III SECCION,16,MIGUEL HIDALGO,CIUDAD DE MEXICO,19.43068791,-99.19651756
9534,EMERGENCIA,,ESCENARIO,,ACCIDENTE DE VEHICULO,,,SUBDIRECCION DE ATENCION A EMERGENCIAS Y RIESGOS,,,AV PARQUE LIRA MELCHOR MUZQUIZ,SIN NUMERO,SAN MIGUEL CHAPULTEPEC I SECCION,16,MIGUEL HIDALGO,CIUDAD DE MEXICO,19.41078283,-99.19054124
9535,EMERGENCIA,,ESCENARIO,,ENFERMO,,,SUBDIRECCION DE ATENCION A EMERGENCIAS Y RIESGOS,,,PONIENTE 143,721,MEXICO NUEVO,16,MIGUEL HIDALGO,CIUDAD DE MEXICO,19.45192594,-99.20366973
9536,EMERGENCIA,,ESCENARIO,,ENFERMO,,,SUBDIRECCION DE ATENCION A EMERGENCIAS Y RIESGOS,,,ARQUIMIDES 36,SIN NUMERO,POLANCO IV SECCION,16,MIGUEL HIDALGO,CIUDAD DE MEXICO,19.43015845,-99.19158455
9537,EMERGENCIA,,ESCENARIO,,LESIONADO POR GOLPES,,,SUBDIRECCION DE ATENCION A EMERGENCIAS Y RIESGOS,,,MAR DE BANDA Y MAR MARMARA,SIN NUMERO,POPOTLA,16,MIGUEL HIDALGO,CIUDAD DE MEXICO,19.45706206,-99.1761592
9538,EMERGENCIA,,ESCENARIO,,LESIONADO POR CAIDA,,,SUBDIRECCION DE ATENCION A EMERGENCIAS Y RIESGOS,,,LAGO CANEGUIN,30,ARGENTINA ANTIGUA,16,MIGUEL HIDALGO,CIUDAD DE MEXICO,19.45524477,-99.20519698
9539,EMERGENCIA,,ESCENARIO,,ENFERMO,,,SUBDIRECCION DE ATENCION A EMERGENCIAS Y RIESGOS,,,SIERRA GUADARRAMA Y MONTE CHIMBORAZO ,58,LOMAS DE CHAPULTEPEC VIII SECCION,16,MIGUEL HIDALGO,CIUDAD DE MEXICO,19.4250642,-99.22389721
9540,EMERGENCIA,,ESCENARIO,,LESIONADO POR GOLPES,,,SUBDIRECCION DE ATENCION A EMERGENCIAS Y RIESGOS,,,LAGO TRASIMENO Y DANIEL CABRERA,SIN NUMERO,REFORMA PENSIL,16,MIGUEL HIDALGO,CIUDAD DE MEXICO,19.44885518,-99.1936977
9541,EMERGENCIA,,ESCENARIO,,ENFERMO,,,SUBDIRECCION DE ATENCION A EMERGENCIAS Y RIESGOS,,,PRESA SALINILLAS Y PRESA SOLIS,SIN NUMERO,LOMAS HERMOSA,16,MIGUEL HIDALGO,CIUDAD DE MEXICO,19.44461779,-99.21260282
9542,EMERGENCIA,,ESCENARIO,,ACCIDENTE DE MOTOCICLETA,,,SUBDIRECCION DE ATENCION A EMERGENCIAS Y RIESGOS,,,VICENTE EGUIA Y PARQUE LIRA,SIN NUMERO,SAN MIGUEL CHAPULTEPEC I SECCION ,16,MIGUEL HIDALGO,CIUDAD DE MEXICO,19.40776405,-99.1869559
9543,EMERGENCIA,,ESCENARIO,,ENFERMO,,,SUBDIRECCION DE ATENCION A EMERGENCIAS Y RIESGOS,,,PONIENTE 147A,729,MEXICO NUEVO,16,MIGUEL HIDALGO,CIUDAD DE MEXICO,19.45276299,-99.20545611
9544,EMERGENCIA,,ESCENARIO,,ENFERMO,,,SUBDIRECCION DE ATENCION A EMERGENCIAS Y RIESGOS,,,LAGO URMIAH ,16,PENSIL NORTE ,16,MIGUEL HIDALGO,CIUDAD DE MEXICO,19.45012417,-99.19517697
9545,EMERGENCIA,,ESCENARIO,,ENFERMO,,,SUBDIRECCION DE ATENCION A EMERGENCIAS Y RIESGOS,,,LAGO CHAPALA Y LAGUNA DE TERMINOS,9132,ANAHUAC II SECCION,16,MIGUEL HIDALGO,CIUDAD DE MEXICO,19.44455815,-99.17519747
9546,EMERGENCIA,,ESCENARIO,,ACCIDENTE DE MOTOCICLETA,,,SUBDIRECCION DE ATENCION A EMERGENCIAS Y RIESGOS,,,CALZ MEXICO TACUBA Y CALZ SAN BARTOLO NAUCALPAN,SIN NUMERO,PANTEON ESPAÑOL,16,MIGUEL HIDALGO,CIUDAD DE MEXICO,19.45853176,-99.20158559
9547,EMERGENCIA,,ESCENARIO,,ENFERMO,,,SUBDIRECCION DE ATENCION A EMERGENCIAS Y RIESGOS,,,AV CONTITUYENTES Y GENERAL PEDRO HINOJOSA,SIN NUMERO,BOSQUE DE CHAPULTEPEC II SECCION,16,MIGUEL HIDALGO,CIUDAD DE MEXICO,19.40831505,-99.19864253
9548,EMERGENCIA,,ESCENARIO,,ENFERMO,,,SUBDIRECCION DE ATENCION A EMERGENCIAS Y RIESGOS,,,CALLE DE LA MARINA,37,OBSERVATORIO,16,MIGUEL HIDALGO,CIUDAD DE MEXICO,19.40582909,-99.19332358
9549,EMERGENCIA,,ESCENARIO,,ENFERMO,,,SUBDIRECCION DE ATENCION A EMERGENCIAS Y RIESGOS,,,LAGO BIWA,29,SAN JUANICO,16,MIGUEL HIDALGO,CIUDAD DE MEXICO,19.45235882,-99.19170238
9550,EMERGENCIA,,ESCENARIO,,ENFERMO,,,SUBDIRECCION DE ATENCION A EMERGENCIAS Y RIESGOS,,,JAIME BALMES Y HOMERO,8,POLANCO I SECCION,16,MIGUEL HIDALGO,CIUDAD DE MEXICO,19.43817872,-99.2097225
9551,EMERGENCIA,,ESCENARIO,,LESIONADO POR CAIDA,,,SUBDIRECCION DE ATENCION A EMERGENCIAS Y RIESGOS,,,MEXICO TACUBA Y MAESTRO RURAL,SIN NUMERO,UN HOGAR PARA NOSOTROS ,16,MIGUEL HIDALGO,CIUDAD DE MEXICO,19.44854262,-99.17051671
9552,EMERGENCIA,,ESCENARIO,,ELECTROCUTADO,,,SUBDIRECCION DE ATENCION A EMERGENCIAS Y RIESGOS,,,PARQUE LIRA Y CONSTITUYENTES,SIN NUMERO,AMPLIACION DANIEL GARZA,16,MIGUEL HIDALGO,CIUDAD DE MEXICO,19.41173425,-99.19141002
9553,EMERGENCIA,,ESCENARIO,,LESIONADO POR GOLPES,,,SUBDIRECCION DE ATENCION A EMERGENCIAS Y RIESGOS,,,ANTONIO LEON Y TAGLE ,20,SAN MIGUEL CHAPULTEPEC II SECCION,16,MIGUEL HIDALGO,CIUDAD DE MEXICO,19.41307817,-99.18293331
9554,EMERGENCIA,,ESCENARIO,,ENFERMO,,,SUBDIRECCION DE ATENCION A EMERGENCIAS Y RIESGOS,,,ANTONIO MACEO Y CARLOS B ZENTINA,6,ESCANDON I SECCION,16,MIGUEL HIDALGO,CIUDAD DE MEXICO,19.40680066,-99.18253368
9555,EMERGENCIA,,ESCENARIO,,LESIONADO POR CAIDA,,,SUBDIRECCION DE ATENCION A EMERGENCIAS Y RIESGOS,,,PARQUE LIRA Y JOSE MORAN,SIN NUMERO,AMPLIACION DANIEL GARZA,16,MIGUEL HIDALGO,CIUDAD DE MEXICO,19.40925022,-99.19040805
9556,EMERGENCIA,,ESCENARIO,,INCONSCIENTE,,,SUBDIRECCION DE ATENCION A EMERGENCIAS Y RIESGOS,,,SOSTENES ROCHA Y AV PARQUE LIRA,3,SAN MIGUEL CHAPULTEPEC I SECCION,16,MIGUEL HIDALGO,CIUDAD DE MEXICO,19.4086027,-99.19006028
9557,EMERGENCIA,,ESCENARIO,,LESIONADO POR CAIDA,,,SUBDIRECCION DE ATENCION A EMERGENCIAS Y RIESGOS,,,AV QUEBRADORA Y AV COSTITUYENTES ,SIN NUMERO,BOSQUE DE CHAPULTEPEC I SECCION,16,MIGUEL HIDALGO,CIUDAD DE MEXICO,19.41427073,-99.18789446
9558,EMERGENCIA,,ESCENARIO,,ACCIDENTE DE MOTOCICLETA,,,SUBDIRECCION DE ATENCION A EMERGENCIAS Y RIESGOS,,,GENERAL JUAN CANO Y GOBERNADOR JOSE CEBALLOS,SIN NUMERO,SAN MIGUEL CHAPULTEPEC I SECCION,16,MIGUEL HIDALGO,CIUDAD DE MEXICO,19.4086027,-99.19006028
9559,EMERGENCIA,,ESCENARIO,,LESIONADO POR CAIDA,,,SUBDIRECCION DE ATENCION A EMERGENCIAS Y RIESGOS,,,CALZ MEXICOTACUBA,SIN NUMERO,AGRICULTURA,16,MIGUEL HIDALGO,CIUDAD DE MEXICO,19.44394862,-99.166125
9560,EMERGENCIA,,ESCENARIO,,LESIONADO POR CAIDA,,,SUBDIRECCION DE ATENCION A EMERGENCIAS Y RIESGOS,,,MAR ADRIATICO ,7,POPOTLA,16,MIGUEL HIDALGO,CIUDAD DE MEXICO,19.45269563,-99.18432942
9561,EMERGENCIA,,ESCENARIO,,ACCIDENTE DE MOTOCICLETA,,,SUBDIRECCION DE ATENCION A EMERGENCIAS Y RIESGOS,,,MIGUEL DE CERVANTES S Y LAGO ZURICH,SIN NUMERO,GRANADA,16,MIGUEL HIDALGO,CIUDAD DE MEXICO,19.44051979,-99.20255105
9562,EMERGENCIA,,ESCENARIO,,ACCIDENTE DE MOTOCICLETA,,,SUBDIRECCION DE ATENCION A EMERGENCIAS Y RIESGOS,,,AV OBSERVATORIO Y SUR 138,SIN NUMERO,16 DE SEPTIEMBRE ,16,MIGUEL HIDALGO,CIUDAD DE MEXICO,19.40137647,-99.20456365
9563,EMERGENCIA,,ESCENARIO,,ENFERMO,,,SUBDIRECCION DE ATENCION A EMERGENCIAS Y RIESGOS,,,CALLE LAGO AULLAGAS,111,IGNACIO MANUEL ALTAMIRANO,16,MIGUEL HIDALGO,CIUDAD DE MEXICO,19.4629723,-99.19652435
9564,EMERGENCIA,,ESCENARIO,,ENFERMO,,,SUBDIRECCION DE ATENCION A EMERGENCIAS Y RIESGOS,,,PONIENTE 75A Y SUR 126,26,AMERICA,16,MIGUEL HIDALGO,CIUDAD DE MEXICO,19.40248633,-99.20178126
9565,EMERGENCIA,,ESCENARIO,,ACCIDENTE DE MOTOCICLETA,,,SUBDIRECCION DE ATENCION A EMERGENCIAS Y RIESGOS,,,MEXICO TACUBA Y MARIANO ESCOBEDO,SIN NUMERO,POPOTLA,16,MIGUEL HIDALGO,CIUDAD DE MEXICO,19.45666507,-99.18063512
9566,EMERGENCIA,,ESCENARIO,,ACCIDENTE DE VEHICULO,,,SUBDIRECCION DE ATENCION A EMERGENCIAS Y RIESGOS,,,PASEO DE LAS PALMAS Y MONTE CHIMBORAZO,SIN NUMERO,LOMAS DE CHAPULTEPEC VIII SECCION,16,MIGUEL HIDALGO,CIUDAD DE MEXICO,19.4246133,-99.22235461
9567,EMERGENCIA,,ESCENARIO,,ACCIDENTE DE VEHICULO,,,SUBDIRECCION DE ATENCION A EMERGENCIAS Y RIESGOS,,,PASEO DE LAS PALMAS Y MONTE CHIMBORAZO,SIN NUMERO,LOMAS DE CHAPULTEPEC VIII SECCION,16,MIGUEL HIDALGO,CIUDAD DE MEXICO,19.4246133,-99.22235461
9568,EMERGENCIA,,ESCENARIO,,LESIONADO POR CAIDA,,,SUBDIRECCION DE ATENCION A EMERGENCIAS Y RIESGOS,,,RINCON DEL BOSQUE Y RUBEN DARIO,SIN NUMERO,POLANCO V SECCION,16,MIGUEL HIDALGO,CIUDAD DE MEXICO,19.43044448,-99.18152878
9569,EMERGENCIA,,ESCENARIO,,LESIONADO POR CAIDA,,,SUBDIRECCION DE ATENCION A EMERGENCIAS Y RIESGOS,,,BARRANQUILLA  Y PRIV JOSE MORAN,56,SAN MIGUEL CHAPULTEPEC I SECCION,16,MIGUEL HIDALGO,CIUDAD DE MEXICO,19.40938847,-99.18863651
9570,EMERGENCIA,,ESCENARIO,,LESIONADO POR CAIDA,,,SUBDIRECCION DE ATENCION A EMERGENCIAS Y RIESGOS,,,BARRANQUILLA  Y PRIV JOSE MORAN,56,SAN MIGUEL CHAPULTEPEC I SECCION,16,MIGUEL HIDALGO,CIUDAD DE MEXICO,19.40938847,-99.18863651
9571,EMERGENCIA,,ESCENARIO,,ACCIDENTE MULTIPLE CON LESIONADOS,,,SUBDIRECCION DE ATENCION A EMERGENCIAS Y RIESGOS,,,CALLE SUR 130 AMERICA,SIN NUMERO,AMERICA,16,MIGUEL HIDALGO,CIUDAD DE MEXICO,19.40368289,-99.2031367
9572,EMERGENCIA,,ESCENARIO,,ACCIDENTE MULTIPLE CON LESIONADOS,,,SUBDIRECCION DE ATENCION A EMERGENCIAS Y RIESGOS,,,CALLE SUR 130 AMERICA,SIN NUMERO,AMERICA,16,MIGUEL HIDALGO,CIUDAD DE MEXICO,19.40368289,-99.2031367
9573,EMERGENCIA,,ESCENARIO,,ENFERMO,,,SUBDIRECCION DE ATENCION A EMERGENCIAS Y RIESGOS,,,CALZ DE LOS GALLOS 190 Y FAUSTO NIETO,SIN NUMERO,PLUTARCO ELIAS CALLES,16,MIGUEL HIDALGO,CIUDAD DE MEXICO,19.45725491,-99.16987628
9574,EMERGENCIA,,ESCENARIO,,LESIONADO SUSPENDIDO,,,SUBDIRECCION DE ATENCION A EMERGENCIAS Y RIESGOS,,,MAR HUDSON Y MEXICO TACUBA,SIN NUMERO,POPOTLA,16,MIGUEL HIDALGO,CIUDAD DE MEXICO,19.4577823,-99.18164272
9575,EMERGENCIA,,ESCENARIO,,LESIONADO POR CAIDA,,,SUBDIRECCION DE ATENCION A EMERGENCIAS Y RIESGOS,,,AV ACUARIO Y REFORMA,SIN NUMERO,BOSQUE DE CHAPULTEPEC I SECCION,16,MIGUEL HIDALGO,CIUDAD DE MEXICO,19.42518087,-99.18791642
9576,EMERGENCIA,,ESCENARIO,,ACCIDENTE DE VEHICULO,,,SUBDIRECCION DE ATENCION A EMERGENCIAS Y RIESGOS,,,MARINA NACIONAL Y CARRILLO PUERTO,SIN NUMERO,TACUBA,16,MIGUEL HIDALGO,CIUDAD DE MEXICO,19.45212731,-99.18577168
9577,EMERGENCIA,,ESCENARIO,,ACCIDENTE DE MOTOCICLETA,,,SUBDIRECCION DE ATENCION A EMERGENCIAS Y RIESGOS,,,3ER ANILLO DE CIRCUVALACION Y AV RIO SAN JOAQUIN ,SIN NUMERO,LOMAS DE SOTELO,16,MIGUEL HIDALGO,CIUDAD DE MEXICO,19.45080836,-99.21303503
9578,EMERGENCIA,,ESCENARIO,,LESIONADO POR GOLPES,,,SUBDIRECCION DE ATENCION A EMERGENCIAS Y RIESGOS,,,MAR ARABIGO Y CALZ MEXICO TACUBA ,SIN NUMERO,TACUBA,16,MIGUEL HIDALGO,CIUDAD DE MEXICO,19.45893213,-99.18517645
9579,EMERGENCIA,,ESCENARIO,,LESIONADO POR CAIDA,,,SUBDIRECCION DE ATENCION A EMERGENCIAS Y RIESGOS,,,MAR MEDITERRANEO Y AV AZCAPOTZALCO,SIN NUMERO,TACUBA,16,MIGUEL HIDALGO,CIUDAD DE MEXICO,19.46059288,-99.18874656
9580,EMERGENCIA,,ESCENARIO,,ENFERMO,,,SUBDIRECCION DE ATENCION A EMERGENCIAS Y RIESGOS,,,"LAGO GASCASONICA  Y LAGO AYARZA
",179,SAN DIEGO OCOYOACAC,16,MIGUEL HIDALGO,CIUDAD DE MEXICO,19.4616902,-99.19449674
9581,EMERGENCIA,,ESCENARIO,,INCONSCIENTE,,,SUBDIRECCION DE ATENCION A EMERGENCIAS Y RIESGOS,,,GOB JOSE MORAN Y GRAL ENRIQUE TORROELLA,143,AMPLIACION DANIEL GARZA,16,MIGUEL HIDALGO,CIUDAD DE MEXICO,19.40924039,-99.19103186
9582,EMERGENCIA,,ESCENARIO,,ENFERMO,,,SUBDIRECCION DE ATENCION A EMERGENCIAS Y RIESGOS,,,LAGO GASCASONICA AQUILES SERDAN,SIN NUMERO,ANGEL ZIMBRON,16,MIGUEL HIDALGO,CIUDAD DE MEXICO,19.46142867,-99.18994318
9583,EMERGENCIA,,ESCENARIO,,MORDEDURA DE ANIMAL,,,SUBDIRECCION DE ATENCION A EMERGENCIAS Y RIESGOS,,,SANTA CRUZ CACALCO Y GENERAL ARISTA,SIN NUMERO,PANTEON SANCTORUM,16,MIGUEL HIDALGO,CIUDAD DE MEXICO,19.45315454,-99.21037372
9584,EMERGENCIA,,ESCENARIO,,ATROPELLADO,,,SUBDIRECCION DE ATENCION A EMERGENCIAS Y RIESGOS,,,AVENIDA CONSTITUYENTES GOBERNADOR IGNACIO ESTEVA ,SIN NUMERO,SAN MIGUEL CHAPULTEPEC I SECCION,16,MIGUEL HIDALGO,CIUDAD DE MEXICO,19.41018172,-99.18501005
9585,EMERGENCIA,,ESCENARIO,,ACCIDENTE DE VEHICULO,,,SUBDIRECCION DE ATENCION A EMERGENCIAS Y RIESGOS,,,MASARYK Y EDGAR ALLAN POE,SIN NUMERO,POLANCO III SECCION,16,MIGUEL HIDALGO,CIUDAD DE MEXICO,19.43221166,-99.19996985
9586,EMERGENCIA,,ESCENARIO,,INCONSCIENTE,,,SUBDIRECCION DE ATENCION A EMERGENCIAS Y RIESGOS,,,FELIPE CARRILLO PUERTO Y CDA MAR DE KARA,181,POPOTLA,16,MIGUEL HIDALGO,CIUDAD DE MEXICO,19.4506596,-99.17824979
9587,EMERGENCIA,,ESCENARIO,,ACCIDENTE DE MOTOCICLETA,,,SUBDIRECCION DE ATENCION A EMERGENCIAS Y RIESGOS,,,EJERCITO NACIONAL Y GOETHE,SIN NUMERO,VERONICA ANZURES,16,MIGUEL HIDALGO,CIUDAD DE MEXICO,19.43392382,-99.17496289
9588,EMERGENCIA,,ESCENARIO,,LESIONADO POR CAIDA,,,SUBDIRECCION DE ATENCION A EMERGENCIAS Y RIESGOS,,,CARLOS LAZO Y CASTELLANOS QUINTO,SIN NUMERO,TACUBAYA,16,MIGUEL HIDALGO,CIUDAD DE MEXICO,19.40257319,-99.1884457
9589,EMERGENCIA,,ESCENARIO,,INTOXICADO,,,SUBDIRECCION DE ATENCION A EMERGENCIAS Y RIESGOS,,,AV JOSE MARTI ,240,ESCANDON II SECCION,16,MIGUEL HIDALGO,CIUDAD DE MEXICO,19.40084826,-99.1738885
9590,EMERGENCIA,,ESCENARIO,,ENFERMO,,,SUBDIRECCION DE ATENCION A EMERGENCIAS Y RIESGOS,,,JOSE MORAN,SIN NUMERO,AMPLIACION DANIEL GARZA,16,MIGUEL HIDALGO,CIUDAD DE MEXICO,19.40910562,-99.19109833
9591,EMERGENCIA,,ESCENARIO,,LESIONADO POR CAIDA,,,SUBDIRECCION DE ATENCION A EMERGENCIAS Y RIESGOS,,,GRAL ARISTAY SANTA CRUZ CACALCO,50,SAN JOAQUIN,16,MIGUEL HIDALGO,CIUDAD DE MEXICO,19.45361769,-99.21012863
9592,EMERGENCIA,,ESCENARIO,,ACCIDENTE DE MOTOCICLETA,,,SUBDIRECCION DE ATENCION A EMERGENCIAS Y RIESGOS,,,LAGO CHIEM Y LAGO NAUR ,SIN NUMERO,REFORMA PENSIL,16,MIGUEL HIDALGO,CIUDAD DE MEXICO,19.4466567,-99.19151342
9593,EMERGENCIA,,ESCENARIO,,ACCIDENTE DE MOTOCICLETA,,,SUBDIRECCION DE ATENCION A EMERGENCIAS Y RIESGOS,,,LAGO CHIEM Y LAGO NAUR ,SIN NUMERO,REFORMA PENSIL,16,MIGUEL HIDALGO,CIUDAD DE MEXICO,19.4466567,-99.19151342
9594,EMERGENCIA,,ESCENARIO,,LESIONADO POR CAIDA,,,SUBDIRECCION DE ATENCION A EMERGENCIAS Y RIESGOS,,,PASEO DE LA REFORMA Y CHIVATITO ,SIN NUMERO,BOSQUE DE CHAPULTEPEC I SECCION,16,MIGUEL HIDALGO,CIUDAD DE MEXICO,19.42555018,-99.1916304
9595,EMERGENCIA,,ESCENARIO,,ENFERMO,,,SUBDIRECCION DE ATENCION A EMERGENCIAS Y RIESGOS,,,PROSPERIDAD Y 12 DE OCTUBRE ,SIN NUMERO,ESCANDON II SECCION,16,MIGUEL HIDALGO,CIUDAD DE MEXICO,19.39938513,-99.1762651
9596,EMERGENCIA,,ESCENARIO,,ENFERMO,,,SUBDIRECCION DE ATENCION A EMERGENCIAS Y RIESGOS,,,LAGO UIJA Y LAGO AMATITALN ,150,TORRE BLANCA,16,MIGUEL HIDALGO,CIUDAD DE MEXICO,19.45881069,-99.1943272
9597,EMERGENCIA,,ESCENARIO,,ENFERMO,,,SUBDIRECCION DE ATENCION A EMERGENCIAS Y RIESGOS,,,EJERCITO NACIONAL Y BUFFON,120,ANZURES,16,MIGUEL HIDALGO,CIUDAD DE MEXICO,19.43458775,-99.17648
9598,EMERGENCIA,,ESCENARIO,,LESIONADO POR CAIDA,,,SUBDIRECCION DE ATENCION A EMERGENCIAS Y RIESGOS,,,PISTA EL SOPE Y AV DE LOS COMPOSITORES,SIN NUMERO,BOSQUE DE CHAPULTEPEC II SECCION,16,MIGUEL HIDALGO,CIUDAD DE MEXICO,19.41682952,-99.20318436
9599,EMERGENCIA,,ESCENARIO,,LESIONADO POR CAIDA,,,SUBDIRECCION DE ATENCION A EMERGENCIAS Y RIESGOS,,,PRIMERA SECCION DE BOSQUE DE CHAPULTEPEC CHIVATITO,SIN NUMERO,BOSQUE DE CHAPULTEPEC I SECCION,16,MIGUEL HIDALGO,CIUDAD DE MEXICO,19.42108635,-99.19513317
9600,EMERGENCIA,,ESCENARIO,,INTOXICADO,,,SUBDIRECCION DE ATENCION A EMERGENCIAS Y RIESGOS,,,ALUMNOS Y PROTASIO TAGLE,36,SAN MIGUEL CHAPULTEPEC II SECCION,16,MIGUEL HIDALGO,CIUDAD DE MEXICO,19.41551975,-99.18241563
9601,EMERGENCIA,,ESCENARIO,,ENFERMO,,,SUBDIRECCION DE ATENCION A EMERGENCIAS Y RIESGOS,,,LAGUNA DE LA MANCHA Y LAGO VICTORIA,87,GRANADA,16,MIGUEL HIDALGO,CIUDAD DE MEXICO,19.44158269,-99.19428542
9602,EMERGENCIA,,ESCENARIO,,ENFERMO,,,SUBDIRECCION DE ATENCION A EMERGENCIAS Y RIESGOS,,,JOSE MORAN,143,AMPLIACION DANIEL GARZA,16,MIGUEL HIDALGO,CIUDAD DE MEXICO,19.40910379,-99.19109662
9603,EMERGENCIA,,ESCENARIO,,LESIONADO POR GOLPES,,,SUBDIRECCION DE ATENCION A EMERGENCIAS Y RIESGOS,,,JOSE MORAN,143,AMPLIACION DANIEL GARZA,16,MIGUEL HIDALGO,CIUDAD DE MEXICO,19.40910379,-99.19109662
9604,EMERGENCIA,,ESCENARIO,,ENFERMO,,,SUBDIRECCION DE ATENCION A EMERGENCIAS Y RIESGOS,,,LAGO GARDA ,33,ANAHUAC I SECCION,16,MIGUEL HIDALGO,CIUDAD DE MEXICO,19.44911136,-99.17923019
9605,EMERGENCIA,,ESCENARIO,,ENFERMO,,,SUBDIRECCION DE ATENCION A EMERGENCIAS Y RIESGOS,,,CIENCIAS  Y PROGRESO,57,ESCANDON I SECCION,16,MIGUEL HIDALGO,CIUDAD DE MEXICO,19.40500422,-99.18029712
9606,EMERGENCIA,,ESCENARIO,,VALORACION,,,SUBDIRECCION DE ATENCION A EMERGENCIAS Y RIESGOS,,,IGNACIO ALLENDE Y CALLE SAN JOAQUIN,SIN NUMERO,ARGENTINA ANTIGUA,16,MIGUEL HIDALGO,CIUDAD DE MEXICO,19.4542799,-99.20477625
9607,EMERGENCIA,,ESCENARIO,,INCONSCIENTE,,,SUBDIRECCION DE ATENCION A EMERGENCIAS Y RIESGOS,,,ABELARDO RODRIGUEZ  Y CALLE 6,42,DEPORTIVO PENSIL,16,MIGUEL HIDALGO,CIUDAD DE MEXICO,19.44741628,-99.20478628
9608,EMERGENCIA,,ESCENARIO,,INCENDIO,,,SUBDIRECCION DE ATENCION A EMERGENCIAS Y RIESGOS,,,EJERCITO NACIONAL Y SOFOCLES,904,POLANCO II SECCION,16,MIGUEL HIDALGO,CIUDAD DE MEXICO,19.43839863,-99.20433565
9609,EMERGENCIA,,ESCENARIO,,INCONSCIENTE,,,SUBDIRECCION DE ATENCION A EMERGENCIAS Y RIESGOS,,,AV INGENIEROS MILITARES Y AV RODOLFO GAONA,SIN NUMERO,LOMAS DE SOTELO,16,MIGUEL HIDALGO,CIUDAD DE MEXICO,19.45045953,-99.21670879
9610,EMERGENCIA,,ESCENARIO,,LESIONADO POR CAIDA,,,SUBDIRECCION DE ATENCION A EMERGENCIAS Y RIESGOS,,,AV REVOLUCION Y JOSE MARIA VIGIL ,SIN NUMERO,TACUBAYA,16,MIGUEL HIDALGO,CIUDAD DE MEXICO,19.4014482,-99.18485445
9611,EMERGENCIA,,ESCENARIO,,INCONSCIENTE,,,SUBDIRECCION DE ATENCION A EMERGENCIAS Y RIESGOS,,,CALZADA MEXICO TACUBA ESQ MAR BLANCO ,SIN NUMERO,POPOTLA,16,MIGUEL HIDALGO,CIUDAD DE MEXICO,19.45568644,-99.17896154
9612,EMERGENCIA,,ESCENARIO,,LESIONADO POR CAIDA,,,SUBDIRECCION DE ATENCION A EMERGENCIAS Y RIESGOS,,,BARRANQUILLA Y CERRADA GENERAL LG  CHILARD,26,OBSERVATORIO,16,MIGUEL HIDALGO,CIUDAD DE MEXICO,19.40668815,-99.19356058
9613,EMERGENCIA,,ESCENARIO,,ENFERMO,,,SUBDIRECCION DE ATENCION A EMERGENCIAS Y RIESGOS,,,JOSE MORAN ,139,AMPLIACION DANIEL GARZA,16,MIGUEL HIDALGO,CIUDAD DE MEXICO,19.40921561,-99.19092382
9614,EMERGENCIA,,ESCENARIO,,ENFERMO,,,SUBDIRECCION DE ATENCION A EMERGENCIAS Y RIESGOS,,,LAGO ATHABASCA Y LAGO AMATITLAN ,143,SAN DIEGO OCOYOACAC,16,MIGUEL HIDALGO,CIUDAD DE MEXICO,19.4627342,-99.19299808
9615,EMERGENCIA,,ESCENARIO,,ENFERMO,,,SUBDIRECCION DE ATENCION A EMERGENCIAS Y RIESGOS,,,CALLE GOBERNADOR AGUSTIN VICENTE EGUIA Y AV PARQUE LIRA,SIN NUMERO,SAN MIGUEL CHAPULTEPEC I SECCION,16,MIGUEL HIDALGO,CIUDAD DE MEXICO,19.40784063,-99.18951439
9616,EMERGENCIA,,ESCENARIO,,ATROPELLADO,,,SUBDIRECCION DE ATENCION A EMERGENCIAS Y RIESGOS,,,PONIENTE 75A Y SUR 128,SIN NUMERO,AMERICA,16,MIGUEL HIDALGO,CIUDAD DE MEXICO,19.40273287,-99.20223879
9617,EMERGENCIA,,ESCENARIO,,ACCIDENTE DE VEHICULO,,,SUBDIRECCION DE ATENCION A EMERGENCIAS Y RIESGOS,,,AVENIDA PASEO DE LA REFORMA ESQ MONTE BLANCO,SIN NUMERO,LOMAS DE CHAPULTEPEC V SECCION,16,MIGUEL HIDALGO,CIUDAD DE MEXICO,19.42326517,-99.21632276
9618,EMERGENCIA,,ESCENARIO,,PERSONA EN SITUACION DE CALLE,,,SUBDIRECCION DE ATENCION A EMERGENCIAS Y RIESGOS,,,AV AZCAPOTZALCO,SIN NUMERO,SAN DIEGO OCOYOACAC,16,MIGUEL HIDALGO,CIUDAD DE MEXICO,19.45979425,-99.18871399
9619,EMERGENCIA,,ESCENARIO,,ACCIDENTE DE MOTOCICLETA,,,SUBDIRECCION DE ATENCION A EMERGENCIAS Y RIESGOS,,,JUAN RACINE Y EJERCITO NACIONAL,SIN NUMERO,IRRIGACION,16,MIGUEL HIDALGO,CIUDAD DE MEXICO,19.43892831,-99.21247072
9620,EMERGENCIA,,ESCENARIO,,ENFERMO,,,SUBDIRECCION DE ATENCION A EMERGENCIAS Y RIESGOS,,,BAHIA DE MAGDALENA Y BAHIA CARACAS ,157,VERONICA ANZURES,16,MIGUEL HIDALGO,CIUDAD DE MEXICO,19.43412579,-99.17382923
9621,EMERGENCIA,,ESCENARIO,,ATROPELLADO,,,SUBDIRECCION DE ATENCION A EMERGENCIAS Y RIESGOS,,,MELCHOR MUZQUIZ Y AV MARQUE LIRA,SIN NUMERO,SAN MIGUEL CHAPULTEPEC I SECCION,16,MIGUEL HIDALGO,CIUDAD DE MEXICO,19.41049232,-99.1906716
9622,EMERGENCIA,,ESCENARIO,,LESIONADO POR CAIDA,,,SUBDIRECCION DE ATENCION A EMERGENCIAS Y RIESGOS,,,FELIPE CARRILLO PUERTO ESQ LAGO TAULEBE ,SIN NUMERO,LEGARIA,16,MIGUEL HIDALGO,CIUDAD DE MEXICO,19.45395919,-99.19332817
9623,EMERGENCIA,,ESCENARIO,,ENFERMO,,,SUBDIRECCION DE ATENCION A EMERGENCIAS Y RIESGOS,,,BARRANQUILLA Y GRAL JUAN VILLEGAS,90,OBSERVATORIO,16,MIGUEL HIDALGO,CIUDAD DE MEXICO,19.40552939,-99.19631509
9624,EMERGENCIA,,ESCENARIO,,URGENCIA RESPIRATORIA,,,SUBDIRECCION DE ATENCION A EMERGENCIAS Y RIESGOS,,,LAGUNA DE MAYRAN ,166,GRANADA,16,MIGUEL HIDALGO,CIUDAD DE MEXICO,19.44233762,-99.18605293
9625,EMERGENCIA,,ESCENARIO,,ENFERMO,,,SUBDIRECCION DE ATENCION A EMERGENCIAS Y RIESGOS,,,C GRAL JOSE MORAN,20,SAN MIGUEL CHAPULTEPEC I SECCION,16,MIGUEL HIDALGO,CIUDAD DE MEXICO,19.40980524,-99.18446069
9626,EMERGENCIA,,ESCENARIO,,ENFERMO,,,SUBDIRECCION DE ATENCION A EMERGENCIAS Y RIESGOS,,,"MEXICOTACUBA   Y MAR BLANCO
",51,POPOTLA,16,MIGUEL HIDALGO,CIUDAD DE MEXICO,19.45584537,-99.17819566
9627,EMERGENCIA,,ESCENARIO,,ENFERMO,,,SUBDIRECCION DE ATENCION A EMERGENCIAS Y RIESGOS,,,AV MARINA NACIONAL Y LAGO TEXCOCO ,SIN NUMERO,MARIANO ESCOBEDO,16,MIGUEL HIDALGO,CIUDAD DE MEXICO,19.444259,-99.179243
9628,EMERGENCIA,,ESCENARIO,,LESIONADO POR CAIDA,,,SUBDIRECCION DE ATENCION A EMERGENCIAS Y RIESGOS,,,CERRADA DE RUFINA ,5,TACUBAYA,16,MIGUEL HIDALGO,CIUDAD DE MEXICO,19.40215323,-99.18880492
9629,EMERGENCIA,,ESCENARIO,,ENFERMO,,,SUBDIRECCION DE ATENCION A EMERGENCIAS Y RIESGOS,,,LAGUNA DE TERMINOS,262,MARIANO ESCOBEDO,16,MIGUEL HIDALGO,CIUDAD DE MEXICO,19.44390354,-99.18250269
9630,EMERGENCIA,,ESCENARIO,,ENFERMO,,,SUBDIRECCION DE ATENCION A EMERGENCIAS Y RIESGOS,,,PARQUE LIRA Y VICENTE EGUIA,SIN NUMERO,OBSERVATORIO,16,MIGUEL HIDALGO,CIUDAD DE MEXICO,19.40736465,-99.1906606
9631,EMERGENCIA,,ESCENARIO,,ENFERMO,,,SUBDIRECCION DE ATENCION A EMERGENCIAS Y RIESGOS,,,JALISCO Y ANTONIO MACEO ,SIN NUMERO,SAN MIGUEL CHAPULTEPEC I SECCION,16,MIGUEL HIDALGO,CIUDAD DE MEXICO,19.40549295,-99.18557718
9632,EMERGENCIA,,ESCENARIO,,ENFERMO,,,SUBDIRECCION DE ATENCION A EMERGENCIAS Y RIESGOS,,,LAGO ISEO ESQ FELIPE CARRILLO PUERTO ,SIN NUMERO,POPOTLA,16,MIGUEL HIDALGO,CIUDAD DE MEXICO,19.45119266,-99.1810149
9633,EMERGENCIA,,ESCENARIO,,ACCIDENTE DE VEHICULO,,,SUBDIRECCION DE ATENCION A EMERGENCIAS Y RIESGOS,,,LAGO COMO Y LAGUNA DE TERMINOS ,SIN NUMERO,GRANADA,16,MIGUEL HIDALGO,CIUDAD DE MEXICO,19.44385295,-99.18408702
9634,EMERGENCIA,,ESCENARIO,,LESIONADO POR GOLPES,,,SUBDIRECCION DE ATENCION A EMERGENCIAS Y RIESGOS,,,PARQUE LIRA ,65,SAN MIGUEL CHAPULTEPEC I SECCION,16,MIGUEL HIDALGO,CIUDAD DE MEXICO,19.40827361,-99.18962603
9635,EMERGENCIA,,ESCENARIO,,LESIONADO POR CAIDA,,,SUBDIRECCION DE ATENCION A EMERGENCIAS Y RIESGOS,,,MIGUEL DE CERVANTES SAAVEDRA Y PROLONGACION MOLIER,SIN NUMERO,GRANADA,16,MIGUEL HIDALGO,CIUDAD DE MEXICO,19.44072186,-99.20050533
9636,EMERGENCIA,,ESCENARIO,,LESIONADO POR CAIDA,,,SUBDIRECCION DE ATENCION A EMERGENCIAS Y RIESGOS,,,LAGO GUANACACHA Y FERROCARRIL DE CUERNAVACA,SIN NUMERO,LAGO NORTE,16,MIGUEL HIDALGO,CIUDAD DE MEXICO,19.4463244,-99.18663973
9637,EMERGENCIA,,ESCENARIO,,INCONSCIENTE,,,SUBDIRECCION DE ATENCION A EMERGENCIAS Y RIESGOS,,,CALZ MEXICO TACUBA Y LAGO COLHUE,1275,ARGENTINA PONIENTE,16,MIGUEL HIDALGO,CIUDAD DE MEXICO,19.45737678,-99.20516886
9638,EMERGENCIA,,ESCENARIO,,ATROPELLADO,,,SUBDIRECCION DE ATENCION A EMERGENCIAS Y RIESGOS,,,HEROES DE 1810 Y PRIMERO DE MAYO,SIN NUMERO,TACUBAYA,16,MIGUEL HIDALGO,CIUDAD DE MEXICO,19.39868673,-99.185314
9639,EMERGENCIA,,ESCENARIO,,ACCIDENTE MULTIPLE CON LESIONADOS,,,SUBDIRECCION DE ATENCION A EMERGENCIAS Y RIESGOS,,,AVENIDA RIO SAN JOAQUIN ESQ AVENIDA LOMAS DE SOTELO,SIN NUMERO,LOMAS DE SOTELO,16,MIGUEL HIDALGO,CIUDAD DE MEXICO,19.45001281,-99.21173866
9640,EMERGENCIA,,ESCENARIO,,LESIONADO POR CAIDA,,,SUBDIRECCION DE ATENCION A EMERGENCIAS Y RIESGOS,,,IGNACIO DE LA TORRE Y JOSE MORAN,SIN NUMERO,AMPLIACION DANIEL GARZA,16,MIGUEL HIDALGO,CIUDAD DE MEXICO,19.40991973,-99.19461492
9641,EMERGENCIA,,ESCENARIO,,CONVULSIONES,,,SUBDIRECCION DE ATENCION A EMERGENCIAS Y RIESGOS,,,ATZAYACATL Y CIRCUITO INTERIOR (MELCHOR OCAMPO,SIN NUMERO,TLAXPANA,16,MIGUEL HIDALGO,CIUDAD DE MEXICO,19.43971468,-99.16816186
9642,EMERGENCIA,,ESCENARIO,,ACCIDENTE DE VEHICULO,,,SUBDIRECCION DE ATENCION A EMERGENCIAS Y RIESGOS,,,PERIFERICO Y CALZ LEGARIA,SIN NUMERO,HIPODROMO DE LAS AMERICAS ,16,MIGUEL HIDALGO,CIUDAD DE MEXICO,19.44266537,-99.21648863
9643,EMERGENCIA,,ESCENARIO,,ACCIDENTE DE VEHICULO,,,SUBDIRECCION DE ATENCION A EMERGENCIAS Y RIESGOS,,,AVENIDA CONSTITUYENTES ESQ AVE GRAL PEDRO ANTONIO DE LOS SANTOS ,SIN NUMERO,BOSQUE DE CHAPULTEPEC I SECCION,16,MIGUEL HIDALGO,CIUDAD DE MEXICO,19.41669235,-99.18055782
9644,EMERGENCIA,,ESCENARIO,,ACCIDENTE DE VEHICULO,,,SUBDIRECCION DE ATENCION A EMERGENCIAS Y RIESGOS,,,AVENIDA CONSTITUYENTES ESQ AVE GRAL PEDRO ANTONIO DE LOS SANTOS ,SIN NUMERO,BOSQUE DE CHAPULTEPEC I SECCION,16,MIGUEL HIDALGO,CIUDAD DE MEXICO,19.41669235,-99.18055782
9645,EMERGENCIA,,ESCENARIO,,OTRAS LESIONES,,,SUBDIRECCION DE ATENCION A EMERGENCIAS Y RIESGOS,,,IGNACIO ZARAGOZA Y JOSE MARIA VELAZCO ,SIN NUMERO,BOSQUE DE CHAPULTEPEC III SECCION,16,MIGUEL HIDALGO,CIUDAD DE MEXICO,19.40422905,-99.21707552
9646,EMERGENCIA,,ESCENARIO,,ENFERMO,,,SUBDIRECCION DE ATENCION A EMERGENCIAS Y RIESGOS,,,LAGO COMO Y PRIVADA LAGO COMO ,63,LOS MANZANOS,16,MIGUEL HIDALGO,CIUDAD DE MEXICO,19.44909506,-99.18367631
9647,EMERGENCIA,,ESCENARIO,,ACCIDENTE MULTIPLE CON LESIONADOS,,,SUBDIRECCION DE ATENCION A EMERGENCIAS Y RIESGOS,,,VICENTE EGUIA Y SOSTENES ROCHA,SIN NUMERO,AMPLIACION DANIEL GARZA,16,MIGUEL HIDALGO,CIUDAD DE MEXICO,19.40825213,-99.19126073
9648,EMERGENCIA,,ESCENARIO,,ENFERMO,,,SUBDIRECCION DE ATENCION A EMERGENCIAS Y RIESGOS,,,MAR AZOF Y JARDIN DIANA,1,POPOTLA,16,MIGUEL HIDALGO,CIUDAD DE MEXICO,19.45492073,-99.18450129
9649,EMERGENCIA,,ESCENARIO,,ENFERMO,,,SUBDIRECCION DE ATENCION A EMERGENCIAS Y RIESGOS,,,GRAL SOSTENES ROCHA  Y AV PARQUE LIRA,4,AMPLIACION DANIEL GARZA,16,MIGUEL HIDALGO,CIUDAD DE MEXICO,19.40843342,-99.1905434
9650,EMERGENCIA,,ESCENARIO,,LESIONADO POR CAIDA,,,SUBDIRECCION DE ATENCION A EMERGENCIAS Y RIESGOS,,,ERASMO CASTELLANOS QUINTO ESQ ING RICARDO TOSCANO ,SIN NUMERO,TACUBAYA,16,MIGUEL HIDALGO,CIUDAD DE MEXICO,19.40363761,-99.18921477
9651,EMERGENCIA,,ESCENARIO,,LESIONADO POR GOLPES,,,SUBDIRECCION DE ATENCION A EMERGENCIAS Y RIESGOS,,,CALZ MEXICO TACUBA ESQ AVENIDA CUITLAHUAC ,SIN NUMERO,POPOTLA,16,MIGUEL HIDALGO,CIUDAD DE MEXICO,19.45663472,-99.18062439
9652,EMERGENCIA,,ESCENARIO,,LESIONADO POR CAIDA,,,SUBDIRECCION DE ATENCION A EMERGENCIAS Y RIESGOS,,,SIERRA NEVADA Y MONTE ALTAI,SIN NUMERO,LOMAS DE CHAPULTEPEC V SECCION,16,MIGUEL HIDALGO,CIUDAD DE MEXICO,19.42607645,-99.20948328
9653,EMERGENCIA,,ESCENARIO,,ENFERMO,,,SUBDIRECCION DE ATENCION A EMERGENCIAS Y RIESGOS,,, SAN BARTOLO Y GENERAL ARISTA ,SIN NUMERO,PANTEON ESPAÑOL,16,MIGUEL HIDALGO,CIUDAD DE MEXICO,19.4613001,-99.21113219
9654,EMERGENCIA,,ESCENARIO,,LESIONADO POR PROYECTIL DE ARMA DE FUEGO,,,SUBDIRECCION DE ATENCION A EMERGENCIAS Y RIESGOS,,,LAGO GUIJA Y MEXICO TACUBA,SIN NUMERO,HUICHAPAN,16,MIGUEL HIDALGO,CIUDAD DE MEXICO,19.4596002,-99.19486195
9655,EMERGENCIA,,ESCENARIO,,OTRAS LESIONES,,,SUBDIRECCION DE ATENCION A EMERGENCIAS Y RIESGOS,,,AV CHAPULTEPEC Y CIRCUITO INTERIOR JOSE VASCONCELOS,SIN NUMERO,BOSQUE DE CHAPULTEPEC I SECCION,16,MIGUEL HIDALGO,CIUDAD DE MEXICO,19.42038799,-99.1779375
9656,EMERGENCIA,,ESCENARIO,,LESIONADO POR GOLPES,,,SUBDIRECCION DE ATENCION A EMERGENCIAS Y RIESGOS,,,LAGO SILVERIO ESQ CERRADA SEGUNDA LAGO SIVERIO,SIN NUMERO,ANAHUAC I SECCION,16,MIGUEL HIDALGO,CIUDAD DE MEXICO,19.44314476,-99.18094777
9657,EMERGENCIA,,ESCENARIO,,ENFERMO,,,SUBDIRECCION DE ATENCION A EMERGENCIAS Y RIESGOS,,,PARQUE LIRA Y JOSE MORAN,SIN NUMERO,SAN MIGUEL CHAPULTEPEC I SECCION,16,MIGUEL HIDALGO,CIUDAD DE MEXICO,19.40943236,-99.1903544
9658,EMERGENCIA,,ESCENARIO,,ACCIDENTE DE VEHICULO,,,SUBDIRECCION DE ATENCION A EMERGENCIAS Y RIESGOS,,,MELCHOR OCAMPO Y DESCARTES,SIN NUMERO,ANZURES,16,MIGUEL HIDALGO,CIUDAD DE MEXICO,19.42704075,-99.17573068
9659,EMERGENCIA,,ESCENARIO,,LESIONADO POR CAIDA,,,SUBDIRECCION DE ATENCION A EMERGENCIAS Y RIESGOS,,,AV CONSTITUYENTES SN,SIN NUMERO,PANTEON CIVIL DE DOLORES,16,MIGUEL HIDALGO,CIUDAD DE MEXICO,19.40649329,-99.20350466
9660,EMERGENCIA,,ESCENARIO,,LESIONADO POR CAIDA,,,SUBDIRECCION DE ATENCION A EMERGENCIAS Y RIESGOS,,,3ER CJON RIO SAN JOAQUIN Y CASA DE LA MONEDA,SIN NUMERO,LOMAS DE SOTELO,16,MIGUEL HIDALGO,CIUDAD DE MEXICO,19.45051645,-99.21406763
9661,EMERGENCIA,,ESCENARIO,,ENFERMO,,,SUBDIRECCION DE ATENCION A EMERGENCIAS Y RIESGOS,,,PASEO DE LA REFORMA Y MONTES URALES,SIN NUMERO,LOMAS DE CHAPULTEPEC III SECCION,16,MIGUEL HIDALGO,CIUDAD DE MEXICO,19.42768352,-99.20511448
9662,EMERGENCIA,,ESCENARIO,,ENFERMO,,,SUBDIRECCION DE ATENCION A EMERGENCIAS Y RIESGOS,,,AUDITORIO NACIONAL ESTACIONAMIENTO AUDITORIO NACIONAL,SIN NUMERO,BOSQUE DE CHAPULTEPEC I SECCION,16,MIGUEL HIDALGO,CIUDAD DE MEXICO,19.42537921,-99.19380471
9663,EMERGENCIA,,ESCENARIO,,LESIONADO POR GOLPES,,,SUBDIRECCION DE ATENCION A EMERGENCIAS Y RIESGOS,,,PONIENTE 75A Y SUR 132,82,AMERICA,16,MIGUEL HIDALGO,CIUDAD DE MEXICO,19.40254309,-99.20418869
9664,EMERGENCIA,,ESCENARIO,,LESIONADO POR GOLPES,,,SUBDIRECCION DE ATENCION A EMERGENCIAS Y RIESGOS,,,PONIENTE 75A Y SUR 132,82,AMERICA,16,MIGUEL HIDALGO,CIUDAD DE MEXICO,19.40254309,-99.20418869
9665,EMERGENCIA,,ESCENARIO,,CAIDA DE ESTRUCTURA,,,SUBDIRECCION DE ATENCION A EMERGENCIAS Y RIESGOS,,,AGRARISMO Y MUTUALISMO,63,ESCANDON I SECCION,16,MIGUEL HIDALGO,CIUDAD DE MEXICO,19.40164787,-99.17258402
9666,EMERGENCIA,,ESCENARIO,,ENFERMO,,,SUBDIRECCION DE ATENCION A EMERGENCIAS Y RIESGOS,,,ACUEDUCTO Y CALLE 14,3,REFORMA SOCIAL,16,MIGUEL HIDALGO,CIUDAD DE MEXICO,19.43010486,-99.22243545
9667,EMERGENCIA,,ESCENARIO,,ATRAGANTAMIENTO,,,SUBDIRECCION DE ATENCION A EMERGENCIAS Y RIESGOS,,,GREGORIOGELATI Y TIBURCIO MOCIEL ,60,SAN MIGUEL CHAPULTEPEC I SECCION,16,MIGUEL HIDALGO,CIUDAD DE MEXICO,19.41182892,-99.18683135
9668,EMERGENCIA,,ESCENARIO,,LESIONADO POR CAIDA,,,SUBDIRECCION DE ATENCION A EMERGENCIAS Y RIESGOS,,,MARINA Y LAGO GUIJA,SIN NUMERO,TACUBA,16,MIGUEL HIDALGO,CIUDAD DE MEXICO,19.45783532,-99.1889253
9669,EMERGENCIA,,ESCENARIO,,ENFERMO,,,SUBDIRECCION DE ATENCION A EMERGENCIAS Y RIESGOS,,,METRO TACUBA,SIN NUMERO,TACUBA,16,MIGUEL HIDALGO,CIUDAD DE MEXICO,19.45960491,-99.18771744
9670,EMERGENCIA,,ESCENARIO,,INCONSCIENTE,,,SUBDIRECCION DE ATENCION A EMERGENCIAS Y RIESGOS,,,MASARYK Y PERIFERICO,582,POLANCO II SECCION,16,MIGUEL HIDALGO,CIUDAD DE MEXICO,19.43262191,-99.20751616
9671,EMERGENCIA,,ESCENARIO,,INTENTO DE SUICIDIO,,,SUBDIRECCION DE ATENCION A EMERGENCIAS Y RIESGOS,,,LAGO CHAIREL Y LAGO GINEBRA,138,5 DE MAYO,16,MIGUEL HIDALGO,CIUDAD DE MEXICO,19.4472703,-99.19989499
9672,EMERGENCIA,,ESCENARIO,,ENFERMO,,,SUBDIRECCION DE ATENCION A EMERGENCIAS Y RIESGOS,,,LAGO TANA ,35,HUICHAPAN,16,MIGUEL HIDALGO,CIUDAD DE MEXICO,19.46000016,-99.19696445
